[{"pincode":401001,"latitude":29.176523,"longitude":120.390932,"location":"Huxi"},
    {"pincode":401002,"latitude":32.795859,"longitude":35.530973,"location":"Tiberias"},
    {"pincode":401003,"latitude":59.9050895,"longitude":10.7673005,"location":"Oslo"},
    {"pincode":401004,"latitude":5.301832,"longitude":-1.9930466,"location":"Tarkwa"},
    {"pincode":401005,"latitude":41.834144,"longitude":124.345531,"location":"Tangtu"},
    {"pincode":401006,"latitude":48.8117212,"longitude":29.9738949,"location":"Khrystynivka"},
    {"pincode":401007,"latitude":18.5138139,"longitude":-72.2881907,"location":"Pétionville"},
    {"pincode":401008,"latitude":23.696329,"longitude":117.433977,"location":"Xibu"},
    {"pincode":401009,"latitude":32.13208,"longitude":35.203342,"location":"Jammā‘īn"},
    {"pincode":401010,"latitude":37.888248,"longitude":116.537067,"location":"Dongguang"},
    {"pincode":401011,"latitude":39.816173,"longitude":77.37263,"location":"Xekar"},
    {"pincode":401012,"latitude":-31.730594,"longitude":-65.006098,"location":"Mina Clavero"},
    {"pincode":401013,"latitude":6.724917,"longitude":-75.282299,"location":"Carolina"},
    {"pincode":401014,"latitude":29.091586,"longitude":111.208469,"location":"Ligonggang"},
    {"pincode":401015,"latitude":14.6826072,"longitude":-89.1128205,"location":"San Fernando"},
    {"pincode":401016,"latitude":28.555787,"longitude":121.244605,"location":"Henglin"},
    {"pincode":401017,"latitude":41.9236371,"longitude":20.9163887,"location":"Bogovinje"},
    {"pincode":401018,"latitude":47.8018062,"longitude":38.4885354,"location":"Amvrosiyivka"},
    {"pincode":401019,"latitude":14.3770919,"longitude":-87.1242072,"location":"Quebradas"},
    {"pincode":401020,"latitude":12.6532933,"longitude":8.4120775,"location":"Kazaure"},
    {"pincode":401021,"latitude":57.033151,"longitude":22.7767899,"location":"Kandava"},
    {"pincode":401022,"latitude":57.30461,"longitude":39.53688,"location":"Semibratovo"},
    {"pincode":401023,"latitude":35.46,"longitude":-97.52,"location":"Oklahoma City"},
    {"pincode":401024,"latitude":8.4584521,"longitude":125.0679195,"location":"Calabugao"},
    {"pincode":401025,"latitude":"48.97974","longitude":"33.52638","location":"Kamennyye Potoki"},
    {"pincode":401026,"latitude":34.059263,"longitude":115.680442,"location":"Caomiao"},
    {"pincode":401027,"latitude":"-8.8899","longitude":"121.2806","location":"Maunuri"},
    {"pincode":401028,"latitude":40.199887,"longitude":116.728714,"location":"Beixiaoying"},
    {"pincode":401029,"latitude":13.7823265,"longitude":122.9052261,"location":"Culacling"},
    {"pincode":401030,"latitude":-7.935395,"longitude":111.8210866,"location":"Sendang"},
    {"pincode":401031,"latitude":52.1584604,"longitude":20.9110916,"location":"Nowe Grocholice"},
    {"pincode":401032,"latitude":22.2361111,"longitude":113.5833333,"location":"Jiuzhou"},
    {"pincode":401033,"latitude":39.756206,"longitude":116.452296,"location":"Yinghai"},
    {"pincode":401034,"latitude":-7.3195036,"longitude":-76.7769324,"location":"Huicungo"},
    {"pincode":401035,"latitude":"-8.6068","longitude":"116.2028","location":"Tanakbeak Daye"},
    {"pincode":401036,"latitude":40.7929026,"longitude":43.8464971,"location":"Gyumri"},
    {"pincode":401037,"latitude":22.8207764,"longitude":113.0239776,"location":"Zhongshan Donglu"},
    {"pincode":401038,"latitude":"52.5643","longitude":"31.1364","location":"Khal’ch"},
    {"pincode":401039,"latitude":1.1290835,"longitude":121.4056153,"location":"Lamadong"},
    {"pincode":401040,"latitude":"51.8796","longitude":"4.5059","location":"Rotterdam postbusnummers"},
    {"pincode":401041,"latitude":60.1960972,"longitude":17.8961823,"location":"Österbybruk"},
    {"pincode":401042,"latitude":-2.0992602,"longitude":133.599128,"location":"Bintuni"},
    {"pincode":401043,"latitude":"-13.69361","longitude":"-73.75861","location":"Saurama"},
    {"pincode":401044,"latitude":51.4695254,"longitude":22.9549933,"location":"Uścimów Stary"},
    {"pincode":401045,"latitude":-7.9821907,"longitude":-38.2893787,"location":"Serra Talhada"},
    {"pincode":401046,"latitude":48.8179158,"longitude":1.967221,"location":"Plaisir"},
    {"pincode":401047,"latitude":52.6806269,"longitude":20.6620485,"location":"Nowe Miasto"},
    {"pincode":401048,"latitude":13.0578415,"longitude":44.8832833,"location":"Laḩij"},
    {"pincode":401049,"latitude":"24.67964","longitude":"102.71159","location":"Laojiangjunjie"},
    {"pincode":401050,"latitude":25.9375976,"longitude":-100.3638252,"location":"El Carmen"},
    {"pincode":401051,"latitude":29.549889,"longitude":114.833005,"location":"Luo’ao"},
    {"pincode":401052,"latitude":59.2784304,"longitude":11.0933783,"location":"Sarpsborg"},
    {"pincode":401053,"latitude":66.0733463,"longitude":33.0544476,"location":"Loukhi"},
    {"pincode":401054,"latitude":24.9936281,"longitude":121.3009798,"location":"Taoyuan"},
    {"pincode":401055,"latitude":41.1823974,"longitude":20.15515,"location":"Labinot-Mal"},
    {"pincode":401056,"latitude":37.2635727,"longitude":127.0286009,"location":"Suwon-si"},
    {"pincode":401057,"latitude":49.966515,"longitude":19.177858,"location":"Brzeszcze"},
    {"pincode":401058,"latitude":39.790486,"longitude":-104.9000469,"location":"Denver"},
    {"pincode":401059,"latitude":49.8405384,"longitude":19.5082319,"location":"Ponikiew"},
    {"pincode":401060,"latitude":25.556716,"longitude":110.016031,"location":"Tiantang"},
    {"pincode":401061,"latitude":41.2921503,"longitude":-96.0573302,"location":"Omaha"},
    {"pincode":401062,"latitude":38.582529,"longitude":21.4467686,"location":"Panaitólion"},
    {"pincode":401063,"latitude":-8.081766,"longitude":-78.0883695,"location":"Tambillo"},
    {"pincode":401064,"latitude":59.8537227,"longitude":17.6472644,"location":"Uppsala"},
    {"pincode":401065,"latitude":3.3850829,"longitude":45.5959878,"location":"Jalalaqsi"},
    {"pincode":401066,"latitude":27.440523,"longitude":109.946012,"location":"Zhongfang"},
    {"pincode":401067,"latitude":55.7133263,"longitude":37.8049211,"location":"Vykhino-Zhulebino"},
    {"pincode":401068,"latitude":-6.7697476,"longitude":106.7293611,"location":"Cidahu"},
    {"pincode":401069,"latitude":32.434672,"longitude":119.569989,"location":"Jiangduo"},
    {"pincode":401070,"latitude":28.0990178,"longitude":-15.4203257,"location":"Palmas De Gran Canaria, Las"},
    {"pincode":401071,"latitude":13.9791936,"longitude":121.7983634,"location":"Malicboy"},
    {"pincode":401072,"latitude":-12.3992902,"longitude":-74.8659421,"location":"Pampas"},
    {"pincode":401073,"latitude":32.4237461,"longitude":-104.2655282,"location":"Orange"},
    {"pincode":401074,"latitude":-6.9263243,"longitude":110.084385,"location":"Kacangan Lor"},
    {"pincode":401075,"latitude":47.4115468,"longitude":18.880086,"location":"Érd"},
    {"pincode":401076,"latitude":39.9097534,"longitude":-8.6587037,"location":"Casal Velho"},
    {"pincode":401077,"latitude":30.3619359,"longitude":51.1611537,"location":"Bāsht"},
    {"pincode":401078,"latitude":29.356117,"longitude":105.927375,"location":"Yongchuan"},
    {"pincode":401079,"latitude":13.7401075,"longitude":-87.7135671,"location":"Aramecina"},
    {"pincode":401080,"latitude":40.2278236,"longitude":-8.5382163,"location":"Castanheira do Campo"},
    {"pincode":401081,"latitude":55.1795454,"longitude":61.3396043,"location":"Otradnyy"},
    {"pincode":401082,"latitude":-26.0779448,"longitude":-53.05199,"location":"Francisco Beltrão"},
    {"pincode":401083,"latitude":48.0724737,"longitude":7.3469006,"location":"Colmar"},
    {"pincode":401084,"latitude":28.1904306,"longitude":112.9857433,"location":"Zhonglong"},
    {"pincode":401085,"latitude":14.5910759,"longitude":121.0191013,"location":"Damayan"},
    {"pincode":401086,"latitude":41.245445,"longitude":119.4015739,"location":"Lingyuan"},
    {"pincode":401087,"latitude":35.2866986,"longitude":36.7415432,"location":"Şūrān"},
    {"pincode":401088,"latitude":36.9522824,"longitude":26.9807653,"location":"Kálymnos"},
    {"pincode":401089,"latitude":23.0327274,"longitude":113.1122067,"location":"Rifeng"},
    {"pincode":401090,"latitude":29.432849,"longitude":110.923502,"location":"Gaofeng"},
    {"pincode":401091,"latitude":50.562666,"longitude":22.3233329,"location":"Jarocin"},
    {"pincode":401092,"latitude":47.5196602,"longitude":91.631072,"location":"Duut"},
    {"pincode":401093,"latitude":48.4339701,"longitude":0.098598,"location":"Alençon"},
    {"pincode":401094,"latitude":29.42,"longitude":-98.49,"location":"San Antonio"},
    {"pincode":401095,"latitude":-10.7281603,"longitude":-40.3496894,"location":"Pindobaçu"},
    {"pincode":401096,"latitude":48.7212066,"longitude":2.1222327,"location":"Gif-sur-Yvette"},
    {"pincode":401097,"latitude":51.4090959,"longitude":22.051777,"location":"Końskowola"},
    {"pincode":401098,"latitude":"-7.1569","longitude":"108.0375","location":"Cikulahan"},
    {"pincode":401099,"latitude":-18.0065679,"longitude":-70.2462741,"location":"Tacna"},
    {"pincode":401100,"latitude":31.2141834,"longitude":121.4561966,"location":"Songhu"},
    {"pincode":401101,"latitude":49.9778407,"longitude":16.9717754,"location":"Šumperk"},
    {"pincode":401102,"latitude":7.7785093,"longitude":98.3031575,"location":"Nai Harn"},
    {"pincode":401103,"latitude":43.42993,"longitude":83.26077,"location":"Xianyuan"},
    {"pincode":401104,"latitude":14.570844,"longitude":121.0230236,"location":"Taguisa"},
    {"pincode":401105,"latitude":0.1156645,"longitude":99.9360207,"location":"Campok"},
    {"pincode":401106,"latitude":9.9789961,"longitude":105.993491,"location":"Trà Ôn"},
    {"pincode":401107,"latitude":57.6073069,"longitude":11.9770405,"location":"Hovås"},
    {"pincode":401108,"latitude":-10.2579964,"longitude":-40.1945306,"location":"Jaguarari"},
    {"pincode":401109,"latitude":23.150928,"longitude":113.347193,"location":"Qiangqinxue"},
    {"pincode":401110,"latitude":48.5851876,"longitude":7.7342943,"location":"Strasbourg"},
    {"pincode":401111,"latitude":42.9963758,"longitude":21.944034,"location":"Leskovac"},
    {"pincode":401112,"latitude":6.1090652,"longitude":102.133622,"location":"Pasir Mas"},
    {"pincode":401113,"latitude":26.074478,"longitude":119.296482,"location":"Muzhou"},
    {"pincode":401114,"latitude":19.9059121,"longitude":105.4771084,"location":"Thị Trấn Thọ Xuân"},
    {"pincode":401115,"latitude":48.9563647,"longitude":17.1329667,"location":"Milotice"},
    {"pincode":401116,"latitude":34.7487164,"longitude":134.0793911,"location":"Okayama-shi"},
    {"pincode":401117,"latitude":"39.21074","longitude":"101.66898","location":"Ehen Hudag"},
    {"pincode":401118,"latitude":26.790544,"longitude":99.816059,"location":"Suhe"},
    {"pincode":401119,"latitude":52.4003253,"longitude":22.6585778,"location":"Drohiczyn"},
    {"pincode":401120,"latitude":13.1317415,"longitude":121.435112,"location":"Maluanluan"},
    {"pincode":401121,"latitude":46.1399991,"longitude":14.9617162,"location":"Kisovec"},
    {"pincode":401122,"latitude":23.09964,"longitude":113.8131,"location":"Shijie"},
    {"pincode":401123,"latitude":50.1681621,"longitude":40.3703941,"location":"Verkhniy Mamon"},
    {"pincode":401124,"latitude":23.028956,"longitude":113.143441,"location":"Nanwai"},
    {"pincode":401125,"latitude":32.864167,"longitude":35.294547,"location":"Sakhnīn"},
    {"pincode":401126,"latitude":-7.666671,"longitude":111.8359916,"location":"Maguan"},
    {"pincode":401127,"latitude":49.9211825,"longitude":19.4250873,"location":"Frydrychowice"},
    {"pincode":401128,"latitude":-26.2171929,"longitude":28.327702,"location":"Sasolburg"},
    {"pincode":401129,"latitude":27.300683,"longitude":119.727073,"location":"Fankeng"},
    {"pincode":401130,"latitude":52.0404797,"longitude":76.9262526,"location":"Aksu"},
    {"pincode":401131,"latitude":-6.6591023,"longitude":106.2931013,"location":"Cilebang Satu"},
    {"pincode":401132,"latitude":26.682871,"longitude":100.109307,"location":"Gaoshan"},
    {"pincode":401133,"latitude":8.50874,"longitude":-73.4488,"location":"El Carmen"},
    {"pincode":401134,"latitude":43.37822,"longitude":115.0594815,"location":"Zhiqu"},
    {"pincode":401135,"latitude":49.7294521,"longitude":19.1018274,"location":"Rybarzowice"},
    {"pincode":401136,"latitude":52.331282,"longitude":4.93136,"location":"Amsterdam Noord west"},
    {"pincode":401137,"latitude":38.669386,"longitude":106.419798,"location":"Xuguang"},
    {"pincode":401138,"latitude":-3.7331933,"longitude":128.1530099,"location":"Amahusu"},
    {"pincode":401139,"latitude":39.708782,"longitude":116.796531,"location":"Yongledian"},
    {"pincode":401140,"latitude":28.7746477,"longitude":83.7730237,"location":"Jomsom"},
    {"pincode":401141,"latitude":-26.9165792,"longitude":-49.0717331,"location":"Blumenau"},
    {"pincode":401142,"latitude":43.2625974,"longitude":23.6556259,"location":"Vratsa"},
    {"pincode":401143,"latitude":7.5273576,"longitude":125.6239227,"location":"Santo Tomas"},
    {"pincode":401144,"latitude":36.2389448,"longitude":46.2779705,"location":"Saqqez"},
    {"pincode":401145,"latitude":-10.789321,"longitude":-65.3301049,"location":"Guajará Mirim"},
    {"pincode":401146,"latitude":-8.460409,"longitude":122.6051351,"location":"Talibura"},
    {"pincode":401147,"latitude":52.2141109,"longitude":24.3581792,"location":"Kobryn"},
    {"pincode":401148,"latitude":-15.1978317,"longitude":12.1575544,"location":"Namibe"},
    {"pincode":401149,"latitude":47.0132508,"longitude":29.6697768,"location":"Velykoploske"},
    {"pincode":401150,"latitude":24.6946241,"longitude":70.1814258,"location":"Islāmkot"},
    {"pincode":401151,"latitude":31.231121,"longitude":121.466039,"location":"Taibao"},
    {"pincode":401152,"latitude":45.1201746,"longitude":20.8993932,"location":"Seleuš"},
    {"pincode":401153,"latitude":24.364134,"longitude":114.562955,"location":"Neiguan"},
    {"pincode":401154,"latitude":55.7479383,"longitude":37.7066623,"location":"Somovo"},
    {"pincode":401155,"latitude":"-8.2133","longitude":"114.3701","location":"Wirodayan"},
    {"pincode":401156,"latitude":-2.9760007,"longitude":118.9295737,"location":"Malunda"},
    {"pincode":401157,"latitude":"15.51667","longitude":"-88.05","location":"El Zapotal del Norte"},
    {"pincode":401158,"latitude":32.7231719,"longitude":110.060938,"location":"Gouping"},
    {"pincode":401159,"latitude":39.8914201,"longitude":-8.767762,"location":"Vale da Bajouca"},
    {"pincode":401160,"latitude":41.5823573,"longitude":-8.4638232,"location":"São Paio Merelim"},
    {"pincode":401161,"latitude":57.2840834,"longitude":55.4543246,"location":"Osa"},
    {"pincode":401162,"latitude":56.2674828,"longitude":54.9252541,"location":"Yanaul"},
    {"pincode":401163,"latitude":10.1334914,"longitude":-65.4193115,"location":"Boca de Uchire"},
    {"pincode":401164,"latitude":26.6664174,"longitude":-80.0894977,"location":"West Palm Beach"},
    {"pincode":401165,"latitude":-6.9667234,"longitude":108.6699011,"location":"Cieurih Satu"},
    {"pincode":401166,"latitude":37.1878209,"longitude":50.1575212,"location":"Langarūd"},
    {"pincode":401167,"latitude":"-8.0934","longitude":"112.463","location":"Jambuwerkrajan"},
    {"pincode":401168,"latitude":24.808198,"longitude":118.03177,"location":"Zhangxi"},
    {"pincode":401169,"latitude":6.67745,"longitude":-75.811744,"location":"Liborina"},
    {"pincode":401170,"latitude":18.144657,"longitude":-94.4189829,"location":"Leyuan"},
    {"pincode":401171,"latitude":53.6934353,"longitude":124.8109085,"location":"Taldan"},
    {"pincode":401172,"latitude":17.0228,"longitude":121.778434,"location":"Banquero"},
    {"pincode":401173,"latitude":-2.9863926,"longitude":101.5134398,"location":"Ipuh"},
    {"pincode":401174,"latitude":26.201227,"longitude":105.480028,"location":"Liuzhi"},
    {"pincode":401175,"latitude":23.2675871,"longitude":-106.3830904,"location":"Las Flores"},
    {"pincode":401176,"latitude":30.619516,"longitude":110.400306,"location":"Sidu"},
    {"pincode":401177,"latitude":46.666415,"longitude":123.169189,"location":"Badai"},
    {"pincode":401178,"latitude":5.9840985,"longitude":116.0761121,"location":"Kota Kinabalu"},
    {"pincode":401179,"latitude":42.6448155,"longitude":22.9615442,"location":"Batanovtsi"},
    {"pincode":401180,"latitude":31.491169,"longitude":120.31191,"location":"Wuxi"},
    {"pincode":401181,"latitude":9.2979179,"longitude":-82.4211025,"location":"Almirante"},
    {"pincode":401182,"latitude":"16.8","longitude":"120.8333","location":"Baculongan"},
    {"pincode":401183,"latitude":52.6957717,"longitude":39.4722994,"location":"Kuz’minskiye Otverzhki"},
    {"pincode":401184,"latitude":22.778717,"longitude":115.365045,"location":"Chengqu"},
    {"pincode":401185,"latitude":"-11.81781","longitude":"-75.62382","location":"Llocllapampa"},
    {"pincode":401186,"latitude":-7.099977,"longitude":106.888644,"location":"Purabaya"},
    {"pincode":401187,"latitude":35.732798,"longitude":116.489043,"location":"Wenshang"},
    {"pincode":401188,"latitude":40.9175193,"longitude":-8.4280201,"location":"Cruzeiro"},
    {"pincode":401189,"latitude":-7.034968,"longitude":108.1725154,"location":"Desa Borogojol"},
    {"pincode":401190,"latitude":50.1611633,"longitude":12.2816034,"location":"Hazlov"},
    {"pincode":401191,"latitude":16.109324,"longitude":119.8289909,"location":"Bangan-Oda"},
    {"pincode":401192,"latitude":50.5860203,"longitude":27.6363775,"location":"Novohrad-Volyns’kyy"},
    {"pincode":401193,"latitude":-8.2545915,"longitude":123.7154467,"location":"Dolulolong"},
    {"pincode":401194,"latitude":-4.3920698,"longitude":32.8986812,"location":"Nzega"},
    {"pincode":401195,"latitude":22.183206,"longitude":112.305145,"location":"Yangping"},
    {"pincode":401196,"latitude":58.3906739,"longitude":13.5695991,"location":"Skara"},
    {"pincode":401197,"latitude":-7.5352682,"longitude":107.5682677,"location":"Cijayana"},
    {"pincode":401198,"latitude":-8.7229245,"longitude":117.8663075,"location":"Teluksantong"},
    {"pincode":401199,"latitude":-13.0356794,"longitude":33.4719832,"location":"Kasungu"},
    {"pincode":401200,"latitude":-6.5912415,"longitude":105.9053689,"location":"Kotadukuh"},
    {"pincode":401201,"latitude":-19.8852788,"longitude":-43.6644238,"location":"Caeté"},
    {"pincode":401202,"latitude":30.115083,"longitude":102.810415,"location":"Shuiyang"},
    {"pincode":401203,"latitude":39.680811,"longitude":122.967328,"location":"Zhuangke"},
    {"pincode":401204,"latitude":5.1970659,"longitude":96.5076426,"location":"Lancang"},
    {"pincode":401205,"latitude":"2.01643","longitude":"10.47066","location":"Ncue"},
    {"pincode":401206,"latitude":-26.1827713,"longitude":-56.3712327,"location":"Caazapá"},
    {"pincode":401207,"latitude":13.7825775,"longitude":121.0492638,"location":"Bolboc"},
    {"pincode":401208,"latitude":32.032726,"longitude":35.288375,"location":"Turmus‘ayyā"},
    {"pincode":401209,"latitude":43.0283952,"longitude":-85.7564107,"location":"Grand Rapids"},
    {"pincode":401210,"latitude":45.9974545,"longitude":13.5270951,"location":"Dobrovo"},
    {"pincode":401211,"latitude":12.4218541,"longitude":124.800874,"location":"Makiwalo"},
    {"pincode":401212,"latitude":48.8078325,"longitude":24.54095,"location":"Bohorodchany"},
    {"pincode":401213,"latitude":-12.4211276,"longitude":13.5494757,"location":"Catumbela"},
    {"pincode":401214,"latitude":"31.18248","longitude":"35.69999","location":"Qīr Moāv"},
    {"pincode":401215,"latitude":35.6868993,"longitude":74.6291131,"location":"Chak"},
    {"pincode":401216,"latitude":53.1891447,"longitude":158.3871557,"location":"Yelizovo"},
    {"pincode":401217,"latitude":9.6588232,"longitude":-84.0995948,"location":"San Rafael Arriba"},
    {"pincode":401218,"latitude":37.738098,"longitude":127.0336819,"location":"Uijeongbu-si"},
    {"pincode":401219,"latitude":39.6883157,"longitude":-8.943639,"location":"Martingança-Gare"},
    {"pincode":401220,"latitude":-7.8013074,"longitude":111.6541483,"location":"Ngembel"},
    {"pincode":401221,"latitude":8.721124,"longitude":5.7563151,"location":"Pategi"},
    {"pincode":401222,"latitude":41.1693186,"longitude":-8.5341147,"location":"Fanzeres"},
    {"pincode":401223,"latitude":14.8892367,"longitude":-24.2940282,"location":"Cova Figueira"},
    {"pincode":401224,"latitude":31.830362,"longitude":119.97167,"location":"Xinbei"},
    {"pincode":401225,"latitude":-6.3660452,"longitude":107.4144526,"location":"Purwasari"},
    {"pincode":401226,"latitude":45.9769612,"longitude":15.0909889,"location":"Šentrupert"},
    {"pincode":401227,"latitude":-26.2324014,"longitude":-51.07813,"location":"Porto União"},
    {"pincode":401228,"latitude":43.8098167,"longitude":18.5653991,"location":"Koran"},
    {"pincode":401229,"latitude":42.9534839,"longitude":129.9920883,"location":"Onsŏng"},
    {"pincode":401230,"latitude":60.2093922,"longitude":24.7375208,"location":"Kauniainen"},
    {"pincode":401231,"latitude":-30.5454936,"longitude":-52.5257016,"location":"Encruzilhada do Sul"},
    {"pincode":401232,"latitude":43.897258,"longitude":89.939332,"location":"Yushugou"},
    {"pincode":401233,"latitude":34.107815,"longitude":108.602317,"location":"Ganting"},
    {"pincode":401234,"latitude":48.0724737,"longitude":7.3469006,"location":"Colmar"},
    {"pincode":401235,"latitude":10.7782801,"longitude":106.9447146,"location":"Long Thành"},
    {"pincode":401236,"latitude":10.1558257,"longitude":-68.5634682,"location":"Nirgua"},
    {"pincode":401237,"latitude":48.9098794,"longitude":2.2829955,"location":"Nanterre"},
    {"pincode":401238,"latitude":9.7525077,"longitude":105.2897042,"location":"Gò Quao"},
    {"pincode":401239,"latitude":-8.2451851,"longitude":114.9724513,"location":"Bestala"},
    {"pincode":401240,"latitude":30.619516,"longitude":110.400306,"location":"Sidu"},
    {"pincode":401241,"latitude":35.2121805,"longitude":71.5249154,"location":"Nāṟay"},
    {"pincode":401242,"latitude":-8.2310152,"longitude":111.5766407,"location":"Salamwates"},
    {"pincode":401243,"latitude":"52.5175","longitude":"25.8429","location":"Tsyelyakhany"},
    {"pincode":401244,"latitude":37.4968471,"longitude":23.447887,"location":"Galatás"},
    {"pincode":401245,"latitude":38.8145081,"longitude":-9.4043725,"location":"Carrascal"},
    {"pincode":401246,"latitude":26.960479,"longitude":114.762098,"location":"Guantian"},
    {"pincode":401247,"latitude":53.0651548,"longitude":20.3482376,"location":"Wiśniewo"},
    {"pincode":401248,"latitude":22.5674949,"longitude":58.6858709,"location":"Al Qābil"},
    {"pincode":401249,"latitude":-27.4308908,"longitude":-65.6147813,"location":"Aguilares"},
    {"pincode":401250,"latitude":9.8539292,"longitude":-84.0911821,"location":"Salitrillos"},
    {"pincode":401251,"latitude":31.2303904,"longitude":121.4737021,"location":"Honghai"},
    {"pincode":401252,"latitude":-17.5093929,"longitude":14.9885388,"location":"Outapi"},
    {"pincode":401253,"latitude":39.932447,"longitude":116.430976,"location":"Dasha"},
    {"pincode":401254,"latitude":47.407461,"longitude":-1.18752,"location":"Ancenis"},
    {"pincode":401255,"latitude":41.3427327,"longitude":-8.5959297,"location":"Bairros"},
    {"pincode":401256,"latitude":44.0427429,"longitude":44.549842,"location":"Edissiya"},
    {"pincode":401257,"latitude":-7.5846909,"longitude":-37.5381606,"location":"Tabira"},
    {"pincode":401258,"latitude":"50.59764","longitude":"28.443","location":"Volodars’k-Volyns’kyy"},
    {"pincode":401259,"latitude":"50.65854","longitude":"128.00932","location":"Srednebelaya"},
    {"pincode":401260,"latitude":22.585397,"longitude":113.38492,"location":"Gangkou"},
    {"pincode":401261,"latitude":28.168408,"longitude":120.482198,"location":"Qiaotou"},
    {"pincode":401262,"latitude":38.6332265,"longitude":-9.1624406,"location":"Corroios"},
    {"pincode":401263,"latitude":37.6214616,"longitude":140.4902763,"location":"Nihommatsu"},
    {"pincode":401264,"latitude":31.6546654,"longitude":131.0216903,"location":"Sueyoshichō-ninokata"},
    {"pincode":401265,"latitude":-14.67278,"longitude":-75.225304,"location":"Changuillo"},
    {"pincode":401266,"latitude":25.606486,"longitude":100.267638,"location":"Dali"},
    {"pincode":401267,"latitude":30.820143,"longitude":106.06886,"location":"Shifan"},
    {"pincode":401268,"latitude":-8.073071,"longitude":113.1173534,"location":"Bedayutalang"},
    {"pincode":401269,"latitude":-7.4468,"longitude":108.00217,"location":"Walagar"},
    {"pincode":401270,"latitude":31.697512,"longitude":121.424811,"location":"Xingnong"},
    {"pincode":401271,"latitude":5.523663,"longitude":-74.234611,"location":"La Victoria"},
    {"pincode":401272,"latitude":41.985186,"longitude":122.836723,"location":"Xinmin"},
    {"pincode":401273,"latitude":40.9951643,"longitude":-7.4476838,"location":"Castainço"},
    {"pincode":401274,"latitude":6.6250097,"longitude":124.5975512,"location":"Isulan"},
    {"pincode":401275,"latitude":39.817642,"longitude":-75.5101999,"location":"Wilmington"},
    {"pincode":401276,"latitude":-4.3383128,"longitude":-41.8402054,"location":"Piripiri"},
    {"pincode":401277,"latitude":-8.1951368,"longitude":123.7992536,"location":"Buriwutung"},
    {"pincode":401278,"latitude":-13.7557949,"longitude":-172.3051657,"location":"Vailoa"},
    {"pincode":401279,"latitude":-21.8324773,"longitude":-46.8925845,"location":"Vargem Grande do Sul"},
    {"pincode":401280,"latitude":-6.7575785,"longitude":38.131876,"location":"Ngerengere"},
    {"pincode":401281,"latitude":46.8122174,"longitude":75.0287331,"location":"Shashūbay"},
    {"pincode":401282,"latitude":35.5374671,"longitude":23.7813889,"location":"Kolympári"},
    {"pincode":401283,"latitude":24.922044,"longitude":118.223965,"location":"Zishan"},
    {"pincode":401284,"latitude":52.4977237,"longitude":20.5022109,"location":"Załuski"},
    {"pincode":401285,"latitude":35.476788,"longitude":110.442846,"location":"Hancheng"},
    {"pincode":401286,"latitude":54.9137734,"longitude":33.2971034,"location":"Dorogobuzh"},
    {"pincode":401287,"latitude":31.5798898,"longitude":35.0999042,"location":"Ḩalḩūl"},
    {"pincode":401288,"latitude":55.9858675,"longitude":14.271615,"location":"Åhus"},
    {"pincode":401289,"latitude":-1.783333,"longitude":119.466667,"location":"Bengga"},
    {"pincode":401290,"latitude":-0.9807341,"longitude":30.2512728,"location":"Ntungamo"},
    {"pincode":401291,"latitude":29.083994,"longitude":87.648747,"location":"Jiru"},
    {"pincode":401292,"latitude":46.8146055,"longitude":29.4715186,"location":"Rîbniţa"},
    {"pincode":401293,"latitude":44.0407757,"longitude":16.1964988,"location":"Knin"},
    {"pincode":401294,"latitude":16.875913,"longitude":97.6439611,"location":"Hpa-an"},
    {"pincode":401295,"latitude":8.955271,"longitude":126.009711,"location":"San Miguel"},
    {"pincode":401296,"latitude":43.9763746,"longitude":4.9052738,"location":"Vedène"},
    {"pincode":401297,"latitude":47.585569,"longitude":18.3979984,"location":"Tatabánya"},
    {"pincode":401298,"latitude":8.9917373,"longitude":40.1631879,"location":"Āwash"},
    {"pincode":401299,"latitude":4.1581668,"longitude":11.5361726,"location":"Obala"},
    {"pincode":401300,"latitude":37.1270988,"longitude":-8.2439177,"location":"Ferreiras"},
    {"pincode":401301,"latitude":48.4902808,"longitude":39.2712224,"location":"Rozkishne"},
    {"pincode":401302,"latitude":41.6848051,"longitude":-7.2733583,"location":"Santa Valha"},
    {"pincode":401303,"latitude":"-13.07361","longitude":"-74.41194","location":"Antaparco"},
    {"pincode":401304,"latitude":63.4400274,"longitude":10.4024274,"location":"Trondheim"},
    {"pincode":401305,"latitude":6.6450416,"longitude":125.3013286,"location":"Tiblawan"},
    {"pincode":401306,"latitude":22.63964,"longitude":114.020922,"location":"Longwu"},
    {"pincode":401307,"latitude":-7.646098,"longitude":111.0266668,"location":"Dawung"},
    {"pincode":401308,"latitude":24.660711,"longitude":118.460176,"location":"Dongshi"},
    {"pincode":401309,"latitude":32.2487226,"longitude":54.0079341,"location":"Meybod"},
    {"pincode":401310,"latitude":45.2911425,"longitude":20.1955026,"location":"Mošorin"},
    {"pincode":401311,"latitude":55.6354144,"longitude":13.0577113,"location":"Arlöv"},
    {"pincode":401312,"latitude":29.859714,"longitude":113.801133,"location":"Gaotieling"},
    {"pincode":401313,"latitude":"-6.8903","longitude":"113.0852","location":"Rangmanten"},
    {"pincode":401314,"latitude":35.579427,"longitude":109.262961,"location":"Huangling"},
    {"pincode":401315,"latitude":19.2933162,"longitude":-70.2583451,"location":"Gaspar Hernández"},
    {"pincode":401316,"latitude":-8.054499,"longitude":112.6526416,"location":"Tangkilsari"},
    {"pincode":401317,"latitude":29.273357,"longitude":47.9400154,"location":"Al Farwānīyah"},
    {"pincode":401318,"latitude":-9.1562915,"longitude":124.6690605,"location":"Oemanu"},
    {"pincode":401319,"latitude":13.1959918,"longitude":-86.1688177,"location":"La Concordia"},
    {"pincode":401320,"latitude":23.134752,"longitude":111.546403,"location":"Jiancheng"},
    {"pincode":401321,"latitude":-18.9253941,"longitude":-54.8438521,"location":"Rio Verde de Mato Grosso"},
    {"pincode":401322,"latitude":14.4240257,"longitude":120.9428802,"location":"Imus"},
    {"pincode":401323,"latitude":19.482042,"longitude":-99.1985584,"location":"San Isidro"},
    {"pincode":401324,"latitude":"54.39976","longitude":"-126.67008","location":"Houston"},
    {"pincode":401325,"latitude":8.2471899,"longitude":34.5915966,"location":"Gambēla"},
    {"pincode":401326,"latitude":-22.573223,"longitude":-47.1731269,"location":"Artur Nogueira"},
    {"pincode":401327,"latitude":0.4568473,"longitude":101.4046099,"location":"Sidomulyo Kulon"},
    {"pincode":401328,"latitude":23.2082857,"longitude":112.8295654,"location":"Fenglu"},
    {"pincode":401329,"latitude":"-6.9888","longitude":"113.0036","location":"Mandepa Barat"},
    {"pincode":401330,"latitude":-6.7282418,"longitude":111.1447759,"location":"Jepuro"},
    {"pincode":401331,"latitude":-7.3614413,"longitude":106.4019733,"location":"Genteng"},
    {"pincode":401332,"latitude":"47.63319","longitude":"-52.94806","location":"Wabana"},
    {"pincode":401333,"latitude":43.1625916,"longitude":-77.6079126,"location":"Rochester"},
    {"pincode":401334,"latitude":"15.48277","longitude":"120.58604","location":"Cut-cut Primero"},
    {"pincode":401335,"latitude":14.5994449,"longitude":120.9990792,"location":"Adela"},
    {"pincode":401336,"latitude":4.272793,"longitude":-74.416014,"location":"Arbeláez"},
    {"pincode":401337,"latitude":"-8.521","longitude":"123.5353","location":"Tobilolong"},
    {"pincode":401338,"latitude":-37.0680421,"longitude":-12.3113147,"location":"Edinburgh of the Seven Seas"},
    {"pincode":401339,"latitude":43.1619639,"longitude":45.1982495,"location":"Bamut"},
    {"pincode":401340,"latitude":-7.0848567,"longitude":111.3947978,"location":"Jatiklampok"},
    {"pincode":401341,"latitude":-32.966145,"longitude":-60.657848,"location":"Gobernador Gálvez"},
    {"pincode":401342,"latitude":40.5004933,"longitude":22.9246383,"location":"Peraía"},
    {"pincode":401343,"latitude":8.0011905,"longitude":-67.3950339,"location":"Guayabal"},
    {"pincode":401344,"latitude":30.830898,"longitude":120.92585,"location":"Jieshan"},
    {"pincode":401345,"latitude":-31.6577222,"longitude":-60.7829517,"location":"Vera"},
    {"pincode":401346,"latitude":"-8.5052","longitude":"118.6133","location":"Tolomango"},
    {"pincode":401347,"latitude":7.8401615,"longitude":99.9423246,"location":"Pa Phayom"},
    {"pincode":401348,"latitude":41.9924293,"longitude":21.4298411,"location":"Šuto Orizare"},
    {"pincode":401349,"latitude":45.5593978,"longitude":-122.807445,"location":"Portland"},
    {"pincode":401350,"latitude":46.9656528,"longitude":28.7657722,"location":"Ialoveni"},
    {"pincode":401351,"latitude":36.9207067,"longitude":137.9553704,"location":"Itoigawa"},
    {"pincode":401352,"latitude":-7.9954685,"longitude":110.9417222,"location":"Watuagung"},
    {"pincode":401353,"latitude":28.240101,"longitude":99.303084,"location":"Benzilan"},
    {"pincode":401354,"latitude":23.439596,"longitude":116.133466,"location":"Mianhu"},
    {"pincode":401355,"latitude":18.9364797,"longitude":-70.41976,"location":"Bonao"},
    {"pincode":401356,"latitude":31.237906,"longitude":121.41794,"location":"Qinjia"},
    {"pincode":401357,"latitude":30.688741,"longitude":109.166598,"location":"Changyanbao"},
    {"pincode":401358,"latitude":40.9838888,"longitude":-5.6589414,"location":"Salamanca"},
    {"pincode":401359,"latitude":49.8756758,"longitude":-106.5573172,"location":"Gravelbourg"},
    {"pincode":401360,"latitude":-12.0582305,"longitude":-77.1053673,"location":"Bellavista"},
    {"pincode":401361,"latitude":-7.1274078,"longitude":113.5282081,"location":"Trasak"},
    {"pincode":401362,"latitude":-2.6284683,"longitude":-80.3895886,"location":"Playas"},
    {"pincode":401363,"latitude":-7.3522365,"longitude":108.0450467,"location":"Lengkongjaya"},
    {"pincode":401364,"latitude":1.424768,"longitude":103.6487041,"location":"Nusajaya"},
    {"pincode":401365,"latitude":29.756501,"longitude":121.507191,"location":"Henghe"},
    {"pincode":401366,"latitude":33.989451,"longitude":105.097568,"location":"Xiaolin"},
    {"pincode":401367,"latitude":45.5946392,"longitude":38.956757,"location":"Timashëvsk"},
    {"pincode":401368,"latitude":12.50337,"longitude":124.286825,"location":"Allen"},
    {"pincode":401369,"latitude":46.2433699,"longitude":14.4192223,"location":"Šenčur"},
    {"pincode":401370,"latitude":-34.5939526,"longitude":-58.5769684,"location":"Ingeniero Guillermo N. Juárez"},
    {"pincode":401371,"latitude":48.7599951,"longitude":98.2670152,"location":"Tosontsengel"},
    {"pincode":401372,"latitude":48.5372073,"longitude":7.5002842,"location":"Molsheim"},
    {"pincode":401373,"latitude":-12.55,"longitude":-74.55,"location":"Paucarbamba"},
    {"pincode":401374,"latitude":60.5717591,"longitude":26.050814,"location":"Liljendal"},
    {"pincode":401375,"latitude":38.6347352,"longitude":-28.0961737,"location":"Manadas"},
    {"pincode":401376,"latitude":-5.3375891,"longitude":-42.6880552,"location":"Demerval Lobão"},
    {"pincode":401377,"latitude":"44.55015","longitude":"-64.24874","location":"Chester"},
    {"pincode":401378,"latitude":50.1076329,"longitude":18.4682284,"location":"Jejkowice"},
    {"pincode":401379,"latitude":49.8545281,"longitude":18.6057328,"location":"Zebrzydowice"},
    {"pincode":401380,"latitude":-11.14718,"longitude":-73.035988,"location":"Sepahua"},
    {"pincode":401381,"latitude":-7.37242,"longitude":110.6973469,"location":"Blumbang"},
    {"pincode":401382,"latitude":39.38316,"longitude":-8.2407873,"location":"Bicas"},
    {"pincode":401383,"latitude":42.4099129,"longitude":27.7009454,"location":"Sozopol"},
    {"pincode":401384,"latitude":30.4415185,"longitude":-87.2518824,"location":"Pensacola"},
    {"pincode":401385,"latitude":38.751115,"longitude":-9.4574506,"location":"Almoínhas Velhas"},
    {"pincode":401386,"latitude":-32.7248333,"longitude":25.5799503,"location":"Somerset East"},
    {"pincode":401387,"latitude":50.9218266,"longitude":19.3568903,"location":"Kłomnice"},
    {"pincode":401388,"latitude":60.0456385,"longitude":30.3403569,"location":"Saint Petersburg"},
    {"pincode":401389,"latitude":-8.1714502,"longitude":114.2806558,"location":"Kampunganyar"},
    {"pincode":401390,"latitude":26.3358903,"longitude":127.875104,"location":"Haebaru"},
    {"pincode":401391,"latitude":15.3553417,"longitude":120.5293228,"location":"Tubo"},
    {"pincode":401392,"latitude":51.5742615,"longitude":5.0840393,"location":"Tilburg"},
    {"pincode":401393,"latitude":28.590337,"longitude":105.697472,"location":"Chishui"},
    {"pincode":401394,"latitude":14.0644874,"longitude":101.5156074,"location":"Prachamtakham"},
    {"pincode":401395,"latitude":41.6550179,"longitude":-8.7184577,"location":"Mujães"},
    {"pincode":401396,"latitude":43.7974664,"longitude":15.6421092,"location":"Tisno"},
    {"pincode":401397,"latitude":41.3743894,"longitude":-7.6099869,"location":"Torre do Pinhão"},
    {"pincode":401398,"latitude":44.7488612,"longitude":19.6907882,"location":"Šabac"},
    {"pincode":401399,"latitude":41.131963,"longitude":120.6976779,"location":"Shaguotun"},
    {"pincode":401400,"latitude":44.7800716,"longitude":44.1646857,"location":"Budënnovsk"},
    {"pincode":401401,"latitude":31.0409483,"longitude":31.3784704,"location":"Al Manşūrah"},
    {"pincode":401402,"latitude":7.5257028,"longitude":-12.5039922,"location":"Bonthe"},
    {"pincode":401403,"latitude":46.259991,"longitude":14.367531,"location":"Kranj"},
    {"pincode":401404,"latitude":-6.9834604,"longitude":112.3367573,"location":"Tracal"},
    {"pincode":401405,"latitude":45.1839187,"longitude":18.8237103,"location":"Privlaka"},
    {"pincode":401406,"latitude":53.9961392,"longitude":27.7280809,"location":"Lyeskawka"},
    {"pincode":401407,"latitude":5.8750769,"longitude":5.6931356,"location":"Sapele"},
    {"pincode":401408,"latitude":-8.784797,"longitude":115.193565,"location":"Duowa"},
    {"pincode":401409,"latitude":-7.3198199,"longitude":112.7420274,"location":"Wonocolo"},
    {"pincode":401410,"latitude":15.2708337,"longitude":-87.8672509,"location":"El Bálsamo"},
    {"pincode":401411,"latitude":22.884636,"longitude":113.454975,"location":"Dongchong"},
    {"pincode":401412,"latitude":5.1970659,"longitude":96.5076426,"location":"Lancang"},
    {"pincode":401413,"latitude":39.1372748,"longitude":111.6717568,"location":"Yiqi"},
    {"pincode":401414,"latitude":4.3759676,"longitude":-7.7009416,"location":"Harper"},
    {"pincode":401415,"latitude":53.1580196,"longitude":18.1549367,"location":"Fordon"},
    {"pincode":401416,"latitude":28.650072,"longitude":121.261886,"location":"Huangyang"},
    {"pincode":401417,"latitude":49.9202398,"longitude":23.7240855,"location":"Ivano-Frankove"},
    {"pincode":401418,"latitude":14.0651123,"longitude":121.2462166,"location":"Alaminos"},
    {"pincode":401419,"latitude":49.2725714,"longitude":-123.1207968,"location":"Richmond"},
    {"pincode":401420,"latitude":"-8.0402","longitude":"111.6023","location":"Krajan Nglinggis"},
    {"pincode":401421,"latitude":44.8238879,"longitude":40.9170843,"location":"Novoalekseyevskaya"},
    {"pincode":401422,"latitude":48.8466523,"longitude":2.2582125,"location":"Paris 15"},
    {"pincode":401423,"latitude":30.310011,"longitude":120.348422,"location":"Xiasha"},
    {"pincode":401424,"latitude":50.7734719,"longitude":18.9680842,"location":"Blachownia"},
    {"pincode":401425,"latitude":39.4364103,"longitude":-8.2988008,"location":"Malpique"},
    {"pincode":401426,"latitude":42.4865907,"longitude":26.5331057,"location":"Yambol"},
    {"pincode":401427,"latitude":31.422941,"longitude":116.892944,"location":"Jingdang"},
    {"pincode":401428,"latitude":-6.8604554,"longitude":-51.4309582,"location":"Tucumã"},
    {"pincode":401429,"latitude":16.289185,"longitude":119.90559,"location":"Carot"},
    {"pincode":401430,"latitude":-6.4153234,"longitude":108.3890321,"location":"Tinumpuk"},
    {"pincode":401431,"latitude":59.9294476,"longitude":30.3651444,"location":"Kurba"},
    {"pincode":401432,"latitude":0.5987602,"longitude":124.297718,"location":"Bakan"},
    {"pincode":401433,"latitude":22.529403,"longitude":103.93935,"location":"Hekou"},
    {"pincode":401434,"latitude":31.499202,"longitude":98.21843,"location":"Jomda"},
    {"pincode":401435,"latitude":15.8229771,"longitude":120.2604675,"location":"Pogonsili"},
    {"pincode":401436,"latitude":41.1961503,"longitude":-8.4156809,"location":"Astromil"},
    {"pincode":401437,"latitude":-7.7595897,"longitude":110.8344302,"location":"Bulu"},
    {"pincode":401438,"latitude":16.3407314,"longitude":121.7646503,"location":"Maddela"},
    {"pincode":401439,"latitude":-10.1790674,"longitude":123.5770012,"location":"Manutapen"},
    {"pincode":401440,"latitude":61.228665,"longitude":14.040054,"location":"Älvdalen"},
    {"pincode":401441,"latitude":-24.2530306,"longitude":-49.7106625,"location":"Jaguariaíva"},
    {"pincode":401442,"latitude":14.22584,"longitude":-86.7139704,"location":"Teupasenti"},
    {"pincode":401443,"latitude":"-8.8567","longitude":"121.012","location":"Nuamuzi"},
    {"pincode":401444,"latitude":-10.3503897,"longitude":-36.6741487,"location":"Neópolis"},
    {"pincode":401445,"latitude":25.58038,"longitude":111.947363,"location":"Shunling"},
    {"pincode":401446,"latitude":-6.1126806,"longitude":106.8806295,"location":"Oja"},
    {"pincode":401447,"latitude":40.104663,"longitude":114.150348,"location":"Yangyuan"},
    {"pincode":401448,"latitude":23.365556,"longitude":116.70345,"location":"Jinping"},
    {"pincode":401449,"latitude":15.3947065,"longitude":105.1726816,"location":"Tan Sum"},
    {"pincode":401450,"latitude":"7.81194","longitude":"124.85444","location":"Adtugan"},
    {"pincode":401451,"latitude":40.941983,"longitude":19.6996428,"location":"Lushnjë"},
    {"pincode":401452,"latitude":34.955825,"longitude":107.905562,"location":"Xujiahe"},
    {"pincode":401453,"latitude":-16.4544375,"longitude":-71.4655565,"location":"Sabandia"},
    {"pincode":401454,"latitude":39.9947462,"longitude":116.3397725,"location":"Xijiao"},
    {"pincode":401455,"latitude":39.893212,"longitude":116.477516,"location":"Jiulongshan"},
    {"pincode":401456,"latitude":19.2987683,"longitude":98.5062007,"location":"Mae Hi"},
    {"pincode":401457,"latitude":13.6954096,"longitude":100.5127381,"location":"Bang Kho Laem"},
    {"pincode":401458,"latitude":"-9.8323","longitude":"120.1821","location":"Bidikotak"},
    {"pincode":401459,"latitude":25.6798529,"longitude":-100.3622461,"location":"La Escondida"},
    {"pincode":401460,"latitude":40.5323093,"longitude":49.710366,"location":"Saray"},
    {"pincode":401461,"latitude":29.202542,"longitude":121.931606,"location":"Shipu"},
    {"pincode":401462,"latitude":4.4979714,"longitude":-73.9118159,"location":"Fómeque"},
    {"pincode":401463,"latitude":3.6085862,"longitude":96.9309771,"location":"Dukoh"},
    {"pincode":401464,"latitude":16.4175955,"longitude":-3.664859,"location":"Goundam"},
    {"pincode":401465,"latitude":20.2218201,"longitude":-75.9869609,"location":"Palma Soriano"},
    {"pincode":401466,"latitude":8.7461253,"longitude":-72.5263984,"location":"Casigua El Cubo"},
    {"pincode":401467,"latitude":45.5691045,"longitude":17.0860622,"location":"Dežanovac"},
    {"pincode":401468,"latitude":19.2814128,"longitude":-99.5409261,"location":"La Concepcion"},
    {"pincode":401469,"latitude":34.8702789,"longitude":138.2530386,"location":"Fujieda"},
    {"pincode":401470,"latitude":50.0534923,"longitude":5.9177071,"location":"Wincrange"},
    {"pincode":401471,"latitude":56.6739933,"longitude":16.2869539,"location":"Kalmar"},
    {"pincode":401472,"latitude":28.947331,"longitude":111.633245,"location":"Doumuhu"},
    {"pincode":401473,"latitude":7.3410628,"longitude":134.4771596,"location":"Koror Town"},
    {"pincode":401474,"latitude":-1.4391409,"longitude":-46.3624686,"location":"Viseu"},
    {"pincode":401475,"latitude":37.2083179,"longitude":9.9576849,"location":"Menzel Jemil"},
    {"pincode":401476,"latitude":49.4575108,"longitude":18.2598032,"location":"Prostřední Bečva"},
    {"pincode":401477,"latitude":-20.2562227,"longitude":-47.4810384,"location":"Pedregulho"},
    {"pincode":401478,"latitude":42.1874125,"longitude":20.0003019,"location":"Iballë"},
    {"pincode":401479,"latitude":34.7671945,"longitude":-82.3777335,"location":"Greenville"},
    {"pincode":401480,"latitude":39.2008462,"longitude":125.6765362,"location":"Sunan"},
    {"pincode":401481,"latitude":-28.733291,"longitude":29.35628,"location":"Bergville"},
    {"pincode":401482,"latitude":-0.5025568,"longitude":117.1514753,"location":"Palebunan"},
    {"pincode":401483,"latitude":35.7208473,"longitude":36.5567371,"location":"Iḩsim"},
    {"pincode":401484,"latitude":61.7968844,"longitude":25.7035513,"location":"Luhanka"},
    {"pincode":401485,"latitude":40.5141742,"longitude":23.8254879,"location":"Stratónion"},
    {"pincode":401486,"latitude":56.0689945,"longitude":13.2357106,"location":"Ljungby"},
    {"pincode":401487,"latitude":41.1509639,"longitude":-7.9737002,"location":"Tapado"},
    {"pincode":401488,"latitude":40.142128,"longitude":94.661966,"location":"Donghuang"},
    {"pincode":401489,"latitude":49.8529322,"longitude":14.7029932,"location":"Čerčany"},
    {"pincode":401490,"latitude":41.1782587,"longitude":-8.3257127,"location":"Chãos"},
    {"pincode":401491,"latitude":-8.7334983,"longitude":121.7508912,"location":"Wolofeo"},
    {"pincode":401492,"latitude":8.508983,"longitude":125.969667,"location":"San Francisco"},
    {"pincode":401493,"latitude":-29.7516119,"longitude":-50.013964,"location":"Capão da Canoa"},
    {"pincode":401494,"latitude":-6.8272662,"longitude":111.2874835,"location":"Logung"},
    {"pincode":401495,"latitude":2.3891028,"longitude":97.730807,"location":"Kuala Baru"},
    {"pincode":401496,"latitude":54.7599431,"longitude":20.1021063,"location":"Svetlyy"},
    {"pincode":401497,"latitude":38.282236,"longitude":140.3411789,"location":"Chitose"},
    {"pincode":401498,"latitude":29.831643,"longitude":120.307334,"location":"Jiangzao"},
    {"pincode":401499,"latitude":23.7247599,"longitude":108.8076195,"location":"Zhuyang"},
    {"pincode":401500,"latitude":40.7163491,"longitude":19.7502384,"location":"Kurjan"},
    {"pincode":401501,"latitude":"15.42495","longitude":"120.77476","location":"Macarse"},
    {"pincode":401502,"latitude":-21.013792,"longitude":-42.8376099,"location":"Visconde do Rio Branco"},
    {"pincode":401503,"latitude":"-10.5182","longitude":"121.7895","location":"Ubajami"},
    {"pincode":401504,"latitude":58.6247472,"longitude":59.8241142,"location":"Nizhnyaya Tura"},
    {"pincode":401505,"latitude":52.1741837,"longitude":22.9436435,"location":"Stara Kornica"},
    {"pincode":401506,"latitude":23.119924,"longitude":113.309317,"location":"Hengshitang"},
    {"pincode":401507,"latitude":51.645278,"longitude":94.265833,"location":"Sukpak"},
    {"pincode":401508,"latitude":49.4129509,"longitude":75.4772753,"location":"Qarqaraly"},
    {"pincode":401509,"latitude":-18.1450471,"longitude":31.8477213,"location":"Macheke"},
    {"pincode":401510,"latitude":53.7283566,"longitude":-7.8004329,"location":"Longford"},
    {"pincode":401511,"latitude":32.715164,"longitude":-16.765857,"location":"Machico"},
    {"pincode":401512,"latitude":40.2445524,"longitude":22.3806789,"location":"Lófos"},
    {"pincode":401513,"latitude":16.0406339,"longitude":120.5903599,"location":"Puncan"},
    {"pincode":401514,"latitude":-6.614938,"longitude":120.43382,"location":"Talon"},
    {"pincode":401515,"latitude":23.152382,"longitude":113.341739,"location":"Xuexi"},
    {"pincode":401516,"latitude":32.904916,"longitude":104.466646,"location":"Tielou"},
    {"pincode":401517,"latitude":15.6915862,"longitude":44.207608,"location":"Al Ḩayfah"},
    {"pincode":401518,"latitude":41.9575515,"longitude":101.0602341,"location":"Gurinai"},
    {"pincode":401519,"latitude":-6.9375866,"longitude":108.5522531,"location":"Cipicung"},
    {"pincode":401520,"latitude":19.3228423,"longitude":95.1797058,"location":"Thayetmyo"},
    {"pincode":401521,"latitude":56.864192,"longitude":60.6396711,"location":"Preobrazheniye"},
    {"pincode":401522,"latitude":23.07555,"longitude":112.007814,"location":"Liudu"},
    {"pincode":401523,"latitude":32.809026,"longitude":110.112629,"location":"Baihe"},
    {"pincode":401524,"latitude":34.6372754,"longitude":134.0105824,"location":"Kimitsu"},
    {"pincode":401525,"latitude":4.833333,"longitude":36.1,"location":"Lobuni"},
    {"pincode":401526,"latitude":50.810462,"longitude":16.2478969,"location":"Szczawno-Zdrój"},
    {"pincode":401527,"latitude":44.5428135,"longitude":18.4767435,"location":"Puračić"},
    {"pincode":401528,"latitude":29.300814,"longitude":120.070387,"location":"Xuefeng"},
    {"pincode":401529,"latitude":-20.1215224,"longitude":-40.3077898,"location":"Serra"},
    {"pincode":401530,"latitude":49.783653,"longitude":33.2526635,"location":"Khorol"},
    {"pincode":401531,"latitude":53.4513,"longitude":17.5316201,"location":"Sępólno Krajeńskie"},
    {"pincode":401532,"latitude":60.053638,"longitude":29.9846651,"location":"Korobitsyno"},
    {"pincode":401533,"latitude":-40.1929865,"longitude":175.2929384,"location":"Bulls"},
    {"pincode":401534,"latitude":53.3734053,"longitude":-6.3695384,"location":"Dungloe"},
    {"pincode":401535,"latitude":-18.5926206,"longitude":-46.5203453,"location":"Patos de Minas"},
    {"pincode":401536,"latitude":53.175543,"longitude":21.296838,"location":"Baranowo"},
    {"pincode":401537,"latitude":28.854554,"longitude":120.740782,"location":"Maiwang"},
    {"pincode":401538,"latitude":7.5670301,"longitude":99.745565,"location":"Na Yong"},
    {"pincode":401539,"latitude":55.6842625,"longitude":37.8548295,"location":"Zhulebino"},
    {"pincode":401540,"latitude":"-9.582","longitude":"119.367","location":"Andekantor"},
    {"pincode":401541,"latitude":47.9450631,"longitude":111.4978265,"location":"Dundbürd"},
    {"pincode":401542,"latitude":35.202503,"longitude":102.521807,"location":"Xiage"},
    {"pincode":401543,"latitude":"-8.605","longitude":"122.743","location":"Watubuku"},
    {"pincode":401544,"latitude":53.2121335,"longitude":-6.1136478,"location":"Kinlough"},
    {"pincode":401545,"latitude":55.3851413,"longitude":39.0323223,"location":"Yegor’yevsk"},
    {"pincode":401546,"latitude":41.2177603,"longitude":19.969783,"location":"Krrabë"},
    {"pincode":401547,"latitude":36.334307,"longitude":99.670448,"location":"Dongke"},
    {"pincode":401548,"latitude":-41.4332215,"longitude":147.1440875,"location":"Launceston"},
    {"pincode":401549,"latitude":0.186066,"longitude":30.4512086,"location":"Kamwenge"},
    {"pincode":401550,"latitude":52.96401,"longitude":14.42781,"location":"Chojna"},
    {"pincode":401551,"latitude":13.2394415,"longitude":99.7901781,"location":"Khao Yoi"},
    {"pincode":401552,"latitude":48.7853082,"longitude":2.072661,"location":"Saint-Quentin-en-Yvelines"},
    {"pincode":401553,"latitude":-6.279197,"longitude":106.832873,"location":"Npongge"},
    {"pincode":401554,"latitude":30.3276652,"longitude":-81.6631259,"location":"Jacksonville"},
    {"pincode":401555,"latitude":"33.53228","longitude":"38.00818","location":"Nāḩiyat as Sab‘ Biyār"},
    {"pincode":401556,"latitude":62.3565057,"longitude":50.0762432,"location":"Mikun’"},
    {"pincode":401557,"latitude":38.689897,"longitude":115.780626,"location":"Gaoyang"},
    {"pincode":401558,"latitude":44.526371,"longitude":130.263089,"location":"Muleng"},
    {"pincode":401559,"latitude":"43.52639","longitude":"68.5775","location":"Khantaghy"},
    {"pincode":401560,"latitude":40.7084699,"longitude":72.8781322,"location":"Kara Suu"},
    {"pincode":401561,"latitude":0.7788357,"longitude":103.4627375,"location":"Urung"},
    {"pincode":401562,"latitude":18.7338573,"longitude":-72.4169377,"location":"Cabaret"},
    {"pincode":401563,"latitude":30.741991,"longitude":121.341969,"location":"Jinshan"},
    {"pincode":401564,"latitude":45.5824038,"longitude":19.0552361,"location":"Sonta"},
    {"pincode":401565,"latitude":40.9303255,"longitude":-8.4956553,"location":"Azenha"},
    {"pincode":401566,"latitude":-8.5803424,"longitude":116.3654707,"location":"Kopang Satu"},
    {"pincode":401567,"latitude":15.38666,"longitude":104.558766,"location":"Khueang Nai"},
    {"pincode":401568,"latitude":45.5623078,"longitude":18.188947,"location":"Jelisavac"},
    {"pincode":401569,"latitude":25.69498,"longitude":115.601076,"location":"Zhuangbu"},
    {"pincode":401570,"latitude":60.303444,"longitude":22.300981,"location":"Länsi-Turunmaa"},
    {"pincode":401571,"latitude":14.9649534,"longitude":102.6298251,"location":"Ban Huai Thalaeng"},
    {"pincode":401572,"latitude":30.701369,"longitude":111.98348,"location":"Herong"},
    {"pincode":401573,"latitude":32.119799,"longitude":34.986653,"location":"An Naşr"},
    {"pincode":401574,"latitude":45.7013243,"longitude":-73.9284855,"location":"Blainville"},
    {"pincode":401575,"latitude":48.887593,"longitude":30.7044131,"location":"Tal’ne"},
    {"pincode":401576,"latitude":-8.1545561,"longitude":113.1981987,"location":"Kebonsari Kidul"},
    {"pincode":401577,"latitude":19.3508272,"longitude":-81.2085052,"location":"North Side"},
    {"pincode":401578,"latitude":-8.2795949,"longitude":112.0327329,"location":"Plandirejo"},
    {"pincode":401579,"latitude":59.925597,"longitude":30.3406369,"location":"Losevo"},
    {"pincode":401580,"latitude":12.4544798,"longitude":7.4976536,"location":"Dutsin Ma"},
    {"pincode":401581,"latitude":14.2552463,"longitude":-89.8497574,"location":"El Jícaro"},
    {"pincode":401582,"latitude":28.438851,"longitude":120.564983,"location":"Shixi"},
    {"pincode":401583,"latitude":50.5602298,"longitude":14.166977,"location":"Žitenice"},
    {"pincode":401584,"latitude":58.4603072,"longitude":8.7649767,"location":"Arendal"},
    {"pincode":401585,"latitude":1.1290835,"longitude":121.4056153,"location":"Lamadong"},
    {"pincode":401586,"latitude":"-14.10472","longitude":"-72.6125","location":"Ayrihuanca"},
    {"pincode":401587,"latitude":18.8539206,"longitude":-71.3009387,"location":"Punta Cana"},
    {"pincode":401588,"latitude":24.6613135,"longitude":102.3589828,"location":"Yuezhao"},
    {"pincode":401589,"latitude":51.900276,"longitude":-1.504654,"location":"Dean"},
    {"pincode":401590,"latitude":40.2982408,"longitude":70.419388,"location":"Konibodom"},
    {"pincode":401591,"latitude":32.723975,"longitude":113.327144,"location":"Biyang"},
    {"pincode":401592,"latitude":15.0663747,"longitude":101.1228553,"location":"Tha Luang"},
    {"pincode":401593,"latitude":54.5859873,"longitude":73.6386612,"location":"Tavricheskoye"},
    {"pincode":401594,"latitude":29.7491757,"longitude":-95.3632107,"location":"Housuo"},
    {"pincode":401595,"latitude":28.406359,"longitude":-106.8654066,"location":"Cuauhtemoc"},
    {"pincode":401596,"latitude":6.4387946,"longitude":100.1947477,"location":"Kangar"},
    {"pincode":401597,"latitude":56.8802017,"longitude":52.2966875,"location":"Uva"},
    {"pincode":401598,"latitude":49.0733587,"longitude":17.3859903,"location":"Zlechov"},
    {"pincode":401599,"latitude":47.1575927,"longitude":115.3064094,"location":"Dzüünbulag"},
    {"pincode":401600,"latitude":49.1606317,"longitude":6.9179709,"location":"Forbach"},
    {"pincode":401601,"latitude":48.013733,"longitude":122.737467,"location":"Zalantun"},
    {"pincode":401602,"latitude":-7.9637383,"longitude":145.7717353,"location":"Kerema"},
    {"pincode":401603,"latitude":26.9105097,"longitude":68.1863546,"location":"Bhiria"},
    {"pincode":401604,"latitude":-30.6866136,"longitude":26.7063745,"location":"Aliwal North"},
    {"pincode":401605,"latitude":-34.6637851,"longitude":-58.5017947,"location":"Cañada de Gómez"},
    {"pincode":401606,"latitude":39.876135,"longitude":-8.9189073,"location":"Casal da Anja"},
    {"pincode":401607,"latitude":7.9645367,"longitude":81.0063855,"location":"Polonnaruwa"},
    {"pincode":401608,"latitude":2.0454995,"longitude":100.6365483,"location":"Rantaupanjangkiri"},
    {"pincode":401609,"latitude":50.0897141,"longitude":8.271907,"location":"Wiesbaden"},
    {"pincode":401610,"latitude":57.8007033,"longitude":12.0725881,"location":"Angered"},
    {"pincode":401611,"latitude":-12.1584708,"longitude":44.4364706,"location":"Patsi"},
    {"pincode":401612,"latitude":-7.5352682,"longitude":107.5682677,"location":"Cijayana"},
    {"pincode":401613,"latitude":13.9802139,"longitude":-14.8016887,"location":"Koungheul"},
    {"pincode":401614,"latitude":11.229568,"longitude":123.6962232,"location":"Patao"},
    {"pincode":401615,"latitude":28.797983,"longitude":116.070639,"location":"Nanxinxiang"},
    {"pincode":401616,"latitude":-2.1596406,"longitude":-79.8184684,"location":"Eloy Alfaro"},
    {"pincode":401617,"latitude":6.7468164,"longitude":38.4139922,"location":"Yirga ‘Alem"},
    {"pincode":401618,"latitude":9.8563254,"longitude":-66.3735841,"location":"Altagracia de Orituco"},
    {"pincode":401619,"latitude":-7.2504446,"longitude":112.7688416,"location":"Tambaksari"},
    {"pincode":401620,"latitude":8.8926971,"longitude":126.3014034,"location":"Cagwait"},
    {"pincode":401621,"latitude":-23.8714093,"longitude":-49.8024588,"location":"Wenceslau Braz"},
    {"pincode":401622,"latitude":38.6436333,"longitude":-8.9810063,"location":"Moita"},
    {"pincode":401623,"latitude":35.0346917,"longitude":137.0871404,"location":"Hirosaki"},
    {"pincode":401624,"latitude":48.8315157,"longitude":84.606767,"location":"Altay"},
    {"pincode":401625,"latitude":8.9494875,"longitude":9.2480728,"location":"Kwolla"},
    {"pincode":401626,"latitude":22.948016,"longitude":113.366904,"location":"Shiqiao"},
    {"pincode":401627,"latitude":6.6644629,"longitude":2.1597595,"location":"Allada"},
    {"pincode":401628,"latitude":11.4145346,"longitude":124.8469591,"location":"Babatngon"},
    {"pincode":401629,"latitude":35.2285451,"longitude":128.8893517,"location":"Kimhae"},
    {"pincode":401630,"latitude":"33.46444","longitude":"126.31833","location":"Gaigeturi"},
    {"pincode":401631,"latitude":49.0525513,"longitude":17.5271323,"location":"Popovice"},
    {"pincode":401632,"latitude":30.933652,"longitude":94.7078,"location":"Bianba"},
    {"pincode":401633,"latitude":32.006965,"longitude":119.847051,"location":"Menghe"},
    {"pincode":401634,"latitude":54.6164547,"longitude":18.1757954,"location":"Bolszewo"},
    {"pincode":401635,"latitude":"-7.2801","longitude":"108.1944","location":"Parakanhonje Wetan"},
    {"pincode":401636,"latitude":20.9455701,"longitude":-101.4423451,"location":"Los Fresnos"},
    {"pincode":401637,"latitude":49.86686,"longitude":19.67676,"location":"Kalwaria Zebrzydowska"},
    {"pincode":401638,"latitude":-6.3629515,"longitude":105.9156477,"location":"Kadupayung"},
    {"pincode":401639,"latitude":-26.9165792,"longitude":-49.0717331,"location":"Blumenau"},
    {"pincode":401640,"latitude":29.484185,"longitude":105.594779,"location":"Guchang"},
    {"pincode":401641,"latitude":15.2402083,"longitude":-91.8440552,"location":"Concepción Tutuapa"},
    {"pincode":401642,"latitude":29.5613789,"longitude":-98.5612534,"location":"San Antonio"},
    {"pincode":401643,"latitude":51.1749425,"longitude":53.0211497,"location":"Aqsay"},
    {"pincode":401644,"latitude":56.9154663,"longitude":53.3224108,"location":"Khokhryaki"},
    {"pincode":401645,"latitude":17.234553,"longitude":102.4235298,"location":"Nong Bua Lamphu"},
    {"pincode":401646,"latitude":16.0173268,"longitude":-85.9585544,"location":"Puerto Castilla"},
    {"pincode":401647,"latitude":"-8.0896","longitude":"112.2944","location":"Gogosuket"},
    {"pincode":401648,"latitude":22.0897108,"longitude":-78.6228504,"location":"Morón"},
    {"pincode":401649,"latitude":-25.4106487,"longitude":-57.3609511,"location":"Itauguá"},
    {"pincode":401650,"latitude":48.7471816,"longitude":2.3572729,"location":"Rungis"},
    {"pincode":401651,"latitude":33.189192,"longitude":120.103473,"location":"Dagang"},
    {"pincode":401652,"latitude":30.940195,"longitude":118.75868,"location":"Xuancheng"},
    {"pincode":401653,"latitude":54.1831243,"longitude":15.9277356,"location":"Dobrzyca"},
    {"pincode":401654,"latitude":39.030297,"longitude":117.566112,"location":"Zhongxinqiao"},
    {"pincode":401655,"latitude":"-8.3081","longitude":"113.4586","location":"Krajan Timur Mlokorejo"},
    {"pincode":401656,"latitude":28.682309,"longitude":118.244769,"location":"Yushan"},
    {"pincode":401657,"latitude":43.61,"longitude":-116.2,"location":"Boise"},
    {"pincode":401658,"latitude":21.2350622,"longitude":-102.3342182,"location":"Niños Heroes"},
    {"pincode":401659,"latitude":46.9,"longitude":97.15,"location":"Balgatay"},
    {"pincode":401660,"latitude":58.465971,"longitude":16.1860744,"location":"Söderköping"},
    {"pincode":401661,"latitude":46.6693059,"longitude":5.5466073,"location":"Lons-le-Saunier"},
    {"pincode":401662,"latitude":15.3487537,"longitude":108.2286504,"location":"Trà My"},
    {"pincode":401663,"latitude":50.7113724,"longitude":25.8291867,"location":"Olyka"},
    {"pincode":401664,"latitude":35.5588061,"longitude":138.0410863,"location":"Ōkawara"},
    {"pincode":401665,"latitude":-5.98978,"longitude":-37.9466737,"location":"Viçosa"},
    {"pincode":401666,"latitude":55.6121118,"longitude":51.8618714,"location":"Nizhnekamsk"},
    {"pincode":401667,"latitude":41.7464398,"longitude":-8.3721165,"location":"Bemposta"},
    {"pincode":401668,"latitude":-34.7383716,"longitude":-58.571838,"location":"Carlos Casares"},
    {"pincode":401669,"latitude":9.9141597,"longitude":-75.4111644,"location":"María la Baja"},
    {"pincode":401670,"latitude":32.0056072,"longitude":-81.0973279,"location":"Savannah"},
    {"pincode":401671,"latitude":15.429396,"longitude":100.0501736,"location":"Uthai Thani"},
    {"pincode":401672,"latitude":-3.1446171,"longitude":104.5305715,"location":"Bakung Utara"},
    {"pincode":401673,"latitude":4.6096768,"longitude":101.1064003,"location":"Ipoh"},
    {"pincode":401674,"latitude":-12.0663691,"longitude":34.7395478,"location":"Chipyela"},
    {"pincode":401675,"latitude":7.8209667,"longitude":-72.2896709,"location":"Capacho Viejo"},
    {"pincode":401676,"latitude":38.020906,"longitude":23.9325441,"location":"Dióni"},
    {"pincode":401677,"latitude":51.1625615,"longitude":54.9809527,"location":"Sol’-Iletsk"},
    {"pincode":401678,"latitude":37.5430686,"longitude":126.939386,"location":"Sindong"},
    {"pincode":401679,"latitude":24.363492,"longitude":117.309946,"location":"Xiaoxi"},
    {"pincode":401680,"latitude":52.1930413,"longitude":25.1471719,"location":"Drahichyn"},
    {"pincode":401681,"latitude":-6.4024844,"longitude":106.7942405,"location":"Delok"},
    {"pincode":401682,"latitude":-24.9288708,"longitude":-53.4392535,"location":"Cascavel"},
    {"pincode":401683,"latitude":-23.8107528,"longitude":-47.1752123,"location":"Ibiúna"},
    {"pincode":401684,"latitude":29.761159,"longitude":105.931414,"location":"Gaoliang"},
    {"pincode":401685,"latitude":50.483611,"longitude":13.357778,"location":"Krásná Lípa"},
    {"pincode":401686,"latitude":43.0429124,"longitude":1.9038837,"location":"Lyon"},
    {"pincode":401687,"latitude":54.8539133,"longitude":38.5734956,"location":"Ozëry"},
    {"pincode":401688,"latitude":15.0365207,"longitude":-86.8195237,"location":"Mangulile"},
    {"pincode":401689,"latitude":48.851792,"longitude":123.810261,"location":"Dula’er Ewenke Minzu"},
    {"pincode":401690,"latitude":40.210071,"longitude":119.710719,"location":"Xiaohekou"},
    {"pincode":401691,"latitude":39.9332981,"longitude":116.4251275,"location":"Shayuan"},
    {"pincode":401692,"latitude":-41.1822198,"longitude":174.8294181,"location":"Porirua"},
    {"pincode":401693,"latitude":-6.7191062,"longitude":108.5329338,"location":"Kedawung"},
    {"pincode":401694,"latitude":35.8439572,"longitude":136.1916906,"location":"Hino"},
    {"pincode":401695,"latitude":41.1645867,"longitude":-7.7937927,"location":"Peso da Régua"},
    {"pincode":401696,"latitude":8.6881283,"longitude":-12.5355393,"location":"Lunsar"},
    {"pincode":401697,"latitude":57.2900329,"longitude":13.5137081,"location":"Gislaved"},
    {"pincode":401698,"latitude":26.9215438,"longitude":68.1195259,"location":"Thāru Shāh"},
    {"pincode":401699,"latitude":44.6611202,"longitude":45.6473241,"location":"Yuzhno-Sukhokumsk"},
    {"pincode":401700,"latitude":42.4865907,"longitude":26.5331057,"location":"Yambol"},
    {"pincode":401701,"latitude":-29.362503,"longitude":-51.08671,"location":"Nova Petrópolis"},
    {"pincode":401702,"latitude":-8.8795811,"longitude":121.656829,"location":"Tetandara"},
    {"pincode":401703,"latitude":55.2519048,"longitude":52.5882232,"location":"Sarmanovo"},
    {"pincode":401704,"latitude":-33.6861588,"longitude":-71.2166838,"location":"Melipilla"},
    {"pincode":401705,"latitude":56.949661,"longitude":23.3371119,"location":"Smārde"},
    {"pincode":401706,"latitude":"46.2286","longitude":"-73.01917","location":"Maskinongé"},
    {"pincode":401707,"latitude":31.323217,"longitude":119.445437,"location":"Tianmuhu"},
    {"pincode":401708,"latitude":41.9432941,"longitude":20.9481376,"location":"Kamenjane"},
    {"pincode":401709,"latitude":-19.9241693,"longitude":-48.3811173,"location":"Conceição das Alagoas"},
    {"pincode":401710,"latitude":24.8560587,"longitude":67.2164016,"location":"Karachi"},
    {"pincode":401711,"latitude":"-10.7475","longitude":"123.2394","location":"Bengubelan"},
    {"pincode":401712,"latitude":50.5658445,"longitude":14.6542767,"location":"Doksy"},
    {"pincode":401713,"latitude":58.7243769,"longitude":15.0017895,"location":"Motala"},
    {"pincode":401714,"latitude":22.691253,"longitude":114.346251,"location":"Pingshan"},
    {"pincode":401715,"latitude":-1.4328008,"longitude":132.0583886,"location":"Teminabuan"},
    {"pincode":401716,"latitude":52.300713,"longitude":-1.6462357,"location":"Hatton"},
    {"pincode":401717,"latitude":-3.0016343,"longitude":120.1985141,"location":"Palopo"},
    {"pincode":401718,"latitude":-6.6816357,"longitude":-78.522826,"location":"Hualgayoc"},
    {"pincode":401719,"latitude":44.3287491,"longitude":-76.1635651,"location":"Gananoque"},
    {"pincode":401720,"latitude":30.6758871,"longitude":-88.1837629,"location":"Mobile"},
    {"pincode":401721,"latitude":14.1005099,"longitude":-1.6226538,"location":"Djibo"},
    {"pincode":401722,"latitude":39.851469,"longitude":113.463703,"location":"Jijiazhuang"},
    {"pincode":401723,"latitude":27.69965,"longitude":108.839557,"location":"Jiangkou"},
    {"pincode":401724,"latitude":12.309606,"longitude":121.92404,"location":"Ferrol"},
    {"pincode":401725,"latitude":45.3652354,"longitude":14.3926584,"location":"Marinići"},
    {"pincode":401726,"latitude":-14.8000877,"longitude":36.5337731,"location":"Cuamba"},
    {"pincode":401727,"latitude":49.80941,"longitude":24.901371,"location":"Zolochiv"},
    {"pincode":401728,"latitude":-7.633333,"longitude":108.366667,"location":"Cikuya"},
    {"pincode":401729,"latitude":44.4868448,"longitude":43.9408057,"location":"Niny"},
    {"pincode":401730,"latitude":48.9359551,"longitude":89.1366848,"location":"Tsengel"},
    {"pincode":401731,"latitude":-28.9510773,"longitude":28.2526623,"location":"Leribe"},
    {"pincode":401732,"latitude":54.0962372,"longitude":18.82934,"location":"Lisewo Malborskie"},
    {"pincode":401733,"latitude":42.4914204,"longitude":-2.522269,"location":"Logroño"},
    {"pincode":401734,"latitude":52.2041343,"longitude":24.7853017,"location":"Antopal’"},
    {"pincode":401735,"latitude":50.7218455,"longitude":8.3073813,"location":"Dillenburg"},
    {"pincode":401736,"latitude":41.5838798,"longitude":-8.5932108,"location":"Roriz"},
    {"pincode":401737,"latitude":60.1161159,"longitude":30.2124344,"location":"Pesochnoye"},
    {"pincode":401738,"latitude":-7.328379,"longitude":108.207215,"location":"Gunungkoneng"},
    {"pincode":401739,"latitude":45.7716857,"longitude":94.9302073,"location":"Tögrög"},
    {"pincode":401740,"latitude":50.7917257,"longitude":21.2322042,"location":"Baćkowice"},
    {"pincode":401741,"latitude":59.5153313,"longitude":34.1866615,"location":"Pikalëvo"},
    {"pincode":401742,"latitude":45.1934857,"longitude":5.7218985,"location":"Grenoble"},
    {"pincode":401743,"latitude":48.2920787,"longitude":25.9358367,"location":"Chernivtsi"},
    {"pincode":401744,"latitude":9.88293,"longitude":-85.529061,"location":"Sámara"},
    {"pincode":401745,"latitude":44.5765376,"longitude":34.3431531,"location":"Partenit"},
    {"pincode":401746,"latitude":-6.9569954,"longitude":112.5408991,"location":"Glatik"},
    {"pincode":401747,"latitude":55.874736,"longitude":26.536179,"location":"Daugavpils"},
    {"pincode":401748,"latitude":3.0782922,"longitude":101.5931076,"location":"Petaling Jaya"},
    {"pincode":401749,"latitude":49.858677,"longitude":18.9770856,"location":"Mazańcowice"},
    {"pincode":401750,"latitude":30.8716344,"longitude":104.0134362,"location":"Lianhe"},
    {"pincode":401751,"latitude":-13.3964033,"longitude":-72.0514291,"location":"Chinchero"},
    {"pincode":401752,"latitude":47.581201,"longitude":1.375111,"location":"Vineuil"},
    {"pincode":401753,"latitude":39.9179113,"longitude":22.595535,"location":"Pyrgetós"},
    {"pincode":401754,"latitude":50.1617318,"longitude":16.9473457,"location":"Staré Město"},
    {"pincode":401755,"latitude":51.78914,"longitude":21.59133,"location":"Łaskarzew"},
    {"pincode":401756,"latitude":40.1572681,"longitude":-8.1106277,"location":"Góis"},
    {"pincode":401757,"latitude":29.4976934,"longitude":106.5730826,"location":"Yangba"},
    {"pincode":401758,"latitude":-5.8949347,"longitude":-35.4343604,"location":"Macaíba"},
    {"pincode":401759,"latitude":43.8554024,"longitude":19.8420937,"location":"Užice"},
    {"pincode":401760,"latitude":-4.6694294,"longitude":34.8706935,"location":"Ilongero"},
    {"pincode":401761,"latitude":32.751027,"longitude":36.301039,"location":"Al Ḩarāk"},
    {"pincode":401762,"latitude":-11.806679,"longitude":-77.1657716,"location":"Santa Rosa"},
    {"pincode":401763,"latitude":-23.4819846,"longitude":-49.2435998,"location":"Taquarituba"},
    {"pincode":401764,"latitude":-6.987872,"longitude":112.1966734,"location":"Kujung"},
    {"pincode":401765,"latitude":9.9576111,"longitude":-84.0284827,"location":"Purral"},
    {"pincode":401766,"latitude":19.4458447,"longitude":-99.1497664,"location":"Buenavista"},
    {"pincode":401767,"latitude":22.919769,"longitude":113.618216,"location":"Shatian"},
    {"pincode":401768,"latitude":28.782431,"longitude":113.122376,"location":"Shangma"},
    {"pincode":401769,"latitude":56.198791,"longitude":25.3251951,"location":"Nereta"},
    {"pincode":401770,"latitude":48.840109,"longitude":2.586253,"location":"Marne-la-Vallée"},
    {"pincode":401771,"latitude":-22.5845295,"longitude":-44.0491741,"location":"Presidente Dutra"},
    {"pincode":401772,"latitude":49.6603908,"longitude":18.4922736,"location":"Dobratice"},
    {"pincode":401773,"latitude":19.9276075,"longitude":-72.7141496,"location":"Saint-Louis du Nord"},
    {"pincode":401774,"latitude":32.597351,"longitude":34.951899,"location":"El Fureidīs"},
    {"pincode":401775,"latitude":15.4575357,"longitude":-92.281427,"location":"El Porvenir"},
    {"pincode":401776,"latitude":50.0281297,"longitude":18.1278226,"location":"Krzanowice"},
    {"pincode":401777,"latitude":48.7893977,"longitude":9.1962771,"location":"Stuttgart"},
    {"pincode":401778,"latitude":56.2340628,"longitude":37.5182622,"location":"Dmitrov"},
    {"pincode":401779,"latitude":28.988133,"longitude":110.206177,"location":"Huangjiazhai"},
    {"pincode":401780,"latitude":39.8037641,"longitude":22.4914418,"location":"Makrychóri"},
    {"pincode":401781,"latitude":49.8788079,"longitude":21.1375994,"location":"Ryglice"},
    {"pincode":401782,"latitude":21.1665519,"longitude":104.9894851,"location":"Tân Sơn"},
    {"pincode":401783,"latitude":34.1277885,"longitude":133.650043,"location":"Kan’onjichō"},
    {"pincode":401784,"latitude":-10.1535089,"longitude":32.6362231,"location":"Isoka"},
    {"pincode":401785,"latitude":-7.916667,"longitude":35.9166669,"location":"Kidodi"},
    {"pincode":401786,"latitude":37.4092357,"longitude":57.9276184,"location":"Shīrvān"},
    {"pincode":401787,"latitude":36.7435003,"longitude":10.2319757,"location":"Ben Arous"},
    {"pincode":401788,"latitude":-6.8973394,"longitude":112.9565196,"location":"Sepulu"},
    {"pincode":401789,"latitude":32.053558,"longitude":12.5355393,"location":"Yafran"},
    {"pincode":401790,"latitude":35.621965,"longitude":118.725698,"location":"Xiadian"},
    {"pincode":401791,"latitude":25.6765837,"longitude":-100.2602364,"location":"Guadalupe"},
    {"pincode":401792,"latitude":30.6543991,"longitude":117.5002172,"location":"Pailou"},
    {"pincode":401793,"latitude":50.7062828,"longitude":13.9466019,"location":"Žandov"},
    {"pincode":401794,"latitude":46.019373,"longitude":15.4759099,"location":"Senovo"},
    {"pincode":401795,"latitude":-7.216667,"longitude":112.083333,"location":"Kepoh"},
    {"pincode":401796,"latitude":46.0313077,"longitude":29.9343459,"location":"Kulevcha"},
    {"pincode":401797,"latitude":48.586322,"longitude":7.7170649,"location":"Strasbourg"},
    {"pincode":401798,"latitude":34.915946,"longitude":98.209206,"location":"Madoi"},
    {"pincode":401799,"latitude":8.3351462,"longitude":124.9801262,"location":"Sumilao"},
    {"pincode":401800,"latitude":-24.9852879,"longitude":-55.1513801,"location":"Itaquyry"},
    {"pincode":401801,"latitude":38.0135829,"longitude":23.8218079,"location":"Agía Paraskeví"},
    {"pincode":401802,"latitude":44.1034877,"longitude":43.2768364,"location":"Lysogorskaya"},
    {"pincode":401803,"latitude":-28.4836381,"longitude":28.8480284,"location":"Phuthaditjhaba"},
    {"pincode":401804,"latitude":29.893672,"longitude":110.346166,"location":"Wuli"},
    {"pincode":401805,"latitude":-7.8100327,"longitude":110.3592495,"location":"Tamansari"},
    {"pincode":401806,"latitude":53.9215606,"longitude":-6.4008792,"location":"Dromiskin"},
    {"pincode":401807,"latitude":22.765392,"longitude":112.964446,"location":"Heshan"},
    {"pincode":401808,"latitude":48.5851876,"longitude":7.7342943,"location":"Strasbourg"},
    {"pincode":401809,"latitude":0.3268809,"longitude":-79.4647633,"location":"Rosa Zarate"},
    {"pincode":401810,"latitude":29.696195,"longitude":106.79542,"location":"Longxing"},
    {"pincode":401811,"latitude":49.8101924,"longitude":19.3940342,"location":"Rzyki"},
    {"pincode":401812,"latitude":52.8886634,"longitude":18.1227285,"location":"Złotniki Kujawskie"},
    {"pincode":401813,"latitude":-3.4944313,"longitude":31.9899648,"location":"Ushirombo"},
    {"pincode":401814,"latitude":-6.6045148,"longitude":-35.2368246,"location":"Jacaraú"},
    {"pincode":401815,"latitude":37.5267674,"longitude":15.0586639,"location":"Catania"},
    {"pincode":401816,"latitude":28.22335,"longitude":115.062214,"location":"Xinjiebu"},
    {"pincode":401817,"latitude":21.4761084,"longitude":106.12575,"location":"Cầu Gồ"},
    {"pincode":401818,"latitude":2.9667878,"longitude":32.0837445,"location":"Amuru"},
    {"pincode":401819,"latitude":35.0702051,"longitude":118.2536287,"location":"Jiefang"},
    {"pincode":401820,"latitude":-20.2530617,"longitude":-43.8030567,"location":"Itabirito"},
    {"pincode":401821,"latitude":-8.2439141,"longitude":114.3727687,"location":"Sobo"},
    {"pincode":401822,"latitude":31.2888328,"longitude":-7.2396659,"location":"Telouet"},
    {"pincode":401823,"latitude":45.1616228,"longitude":17.9293975,"location":"Slobodnica"},
    {"pincode":401824,"latitude":43.4988397,"longitude":4.9789041,"location":"Istres"},
    {"pincode":401825,"latitude":40.6661376,"longitude":22.9037753,"location":"Évosmos"},
    {"pincode":401826,"latitude":-6.6572023,"longitude":106.7057733,"location":"Tenjolaya"},
    {"pincode":401827,"latitude":39.76624,"longitude":44.8087498,"location":"Armash"},
    {"pincode":401828,"latitude":15.8137804,"longitude":120.3404633,"location":"Angatel"},
    {"pincode":401829,"latitude":33.4644365,"longitude":36.3023941,"location":"Al Ḩajar al Aswad"},
    {"pincode":401830,"latitude":22.843818,"longitude":114.164223,"location":"Qinxi"},
    {"pincode":401831,"latitude":35.00394,"longitude":104.634983,"location":"Longxi"},
    {"pincode":401832,"latitude":-34.7063243,"longitude":-58.4776004,"location":"Tigre"},
    {"pincode":401833,"latitude":35.640089,"longitude":103.766427,"location":"Shuiquan"},
    {"pincode":401834,"latitude":38.02365,"longitude":114.152183,"location":"Weishui"},
    {"pincode":401835,"latitude":5.990033,"longitude":120.953061,"location":"Kajatian"},
    {"pincode":401836,"latitude":8.2540261,"longitude":125.0275818,"location":"Impalutao"},
    {"pincode":401837,"latitude":-14.9210683,"longitude":-49.609512,"location":"Itapaci"},
    {"pincode":401838,"latitude":0.5695252,"longitude":34.5583766,"location":"Bungoma"},
    {"pincode":401839,"latitude":27.58237,"longitude":110.897275,"location":"Huangjinjing"},
    {"pincode":401840,"latitude":-7.62385,"longitude":109.23577,"location":"Mujur Satu"},
    {"pincode":401841,"latitude":20.4112324,"longitude":104.2250605,"location":"Viangxai"},
    {"pincode":401842,"latitude":-27.5245743,"longitude":-60.3884354,"location":"Samuhú"},
    {"pincode":401843,"latitude":56.7279731,"longitude":41.0643386,"location":"Novyye Gorki"},
    {"pincode":401844,"latitude":32.5236404,"longitude":35.853757,"location":"Aydūn"},
    {"pincode":401845,"latitude":37.1035665,"longitude":25.3776734,"location":"Naxos"},
    {"pincode":401846,"latitude":49.5519718,"longitude":17.3375604,"location":"Velký Týnec"},
    {"pincode":401847,"latitude":52.655184,"longitude":-7.2584,"location":"Kilkenny"},
    {"pincode":401848,"latitude":53.8819853,"longitude":18.5517476,"location":"Bobowo"},
    {"pincode":401849,"latitude":58.5594907,"longitude":15.282715,"location":"Linköping"},
    {"pincode":401850,"latitude":53.6482058,"longitude":52.1229541,"location":"Pokhvistnevo"},
    {"pincode":401851,"latitude":17.3378289,"longitude":121.759491,"location":"Quibal"},
    {"pincode":401852,"latitude":8.5524587,"longitude":-82.6861446,"location":"Sioguí Arriba"},
    {"pincode":401853,"latitude":"35.84917","longitude":"14.50306","location":"Gudja"},
    {"pincode":401854,"latitude":44.891731,"longitude":-76.0289414,"location":"Smiths Falls"},
    {"pincode":401855,"latitude":"32.97771","longitude":"98.09795","location":"Qümong"},
    {"pincode":401856,"latitude":-21.4649748,"longitude":-49.2246518,"location":"Novo Horizonte"},
    {"pincode":401857,"latitude":39.9041999,"longitude":116.4073963,"location":"Baijiang"},
    {"pincode":401858,"latitude":53.3062953,"longitude":36.0446294,"location":"Znamenskoye"},
    {"pincode":401859,"latitude":26.3705389,"longitude":118.2323381,"location":"Tadou"},
    {"pincode":401860,"latitude":-20.4059505,"longitude":57.7034222,"location":"Mahébourg"},
    {"pincode":401861,"latitude":48.2414942,"longitude":-1.8090692,"location":"Reims"},
    {"pincode":401862,"latitude":39.8971627,"longitude":66.2724183,"location":"Kattaqo’rg’on"},
    {"pincode":401863,"latitude":25.983202,"longitude":107.869749,"location":"Sandu"},
    {"pincode":401864,"latitude":44.043297,"longitude":129.359811,"location":"Hengdaohezi"},
    {"pincode":401865,"latitude":59.8664826,"longitude":48.0119891,"location":"Maromitsa"},
    {"pincode":401866,"latitude":31.857513,"longitude":120.507721,"location":"Baiqiao"},
    {"pincode":401867,"latitude":43.7441795,"longitude":2.511999,"location":"Marseille"},
    {"pincode":401868,"latitude":-28.2252,"longitude":28.30652,"location":"Bethlehem"},
    {"pincode":401869,"latitude":45.2110039,"longitude":14.5569253,"location":"Omišalj"},
    {"pincode":401870,"latitude":-10.2824604,"longitude":123.3205544,"location":"Uitiuhtuan"},
    {"pincode":401871,"latitude":20.6536084,"longitude":-100.3469826,"location":"El Refugio"},
    {"pincode":401872,"latitude":49.1063903,"longitude":17.164335,"location":"Koryčany"},
    {"pincode":401873,"latitude":38.5557833,"longitude":-9.0860982,"location":"Courelas Bravas"},
    {"pincode":401874,"latitude":23.020673,"longitude":113.751799,"location":"Tongtuan"},
    {"pincode":401875,"latitude":-38.9156735,"longitude":-67.9800178,"location":"San Antonio Oeste"},
    {"pincode":401876,"latitude":0.8150687,"longitude":-77.7165925,"location":"Tulcán"},
    {"pincode":401877,"latitude":44.8547059,"longitude":15.6521179,"location":"Jezerce"},
    {"pincode":401878,"latitude":43.7624891,"longitude":27.2163113,"location":"Dulovo"},
    {"pincode":401879,"latitude":-8.618134,"longitude":122.1916328,"location":"Wolomarang"},
    {"pincode":401880,"latitude":6.5490578,"longitude":-7.4976536,"location":"Guiglo"},
    {"pincode":401881,"latitude":"9.7817","longitude":"124.4693","location":"Catungawan Sur"},
    {"pincode":401882,"latitude":-34.3788739,"longitude":-58.7024688,"location":"Santa Catalina - Dique Lujan"},
    {"pincode":401883,"latitude":13.6855601,"longitude":100.444639,"location":"Ban Thai Tan"},
    {"pincode":401884,"latitude":4.6259611,"longitude":96.6740303,"location":"Angkup"},
    {"pincode":401885,"latitude":29.184943,"longitude":105.055945,"location":"Gaoshi"},
    {"pincode":401886,"latitude":54.1858234,"longitude":32.6467726,"location":"Stodolishche"},
    {"pincode":401887,"latitude":52.7312889,"longitude":27.4572059,"location":"Starobin"},
    {"pincode":401888,"latitude":11.1179302,"longitude":123.0099723,"location":"Tigbaw"},
    {"pincode":401889,"latitude":34.675197,"longitude":103.498609,"location":"Baitu"},
    {"pincode":401890,"latitude":39.9996674,"longitude":116.3264439,"location":"Qinghua"},
    {"pincode":401891,"latitude":60.8004898,"longitude":25.772962,"location":"Artjärvi"},
    {"pincode":401892,"latitude":-6.7407026,"longitude":111.0847891,"location":"Widorokandang"},
    {"pincode":401893,"latitude":48.2751888,"longitude":40.1995439,"location":"Donetsk"},
    {"pincode":401894,"latitude":16.7137921,"longitude":104.7345937,"location":"Wan Yai"},
    {"pincode":401895,"latitude":49.2101697,"longitude":15.9883033,"location":"Vladislav"},
    {"pincode":401896,"latitude":61.243306,"longitude":46.900459,"location":"Vychegodskiy"},
    {"pincode":401897,"latitude":-2.5503853,"longitude":-44.070196,"location":"São José de Ribamar"},
    {"pincode":401898,"latitude":"28.85816","longitude":"89.94036","location":"Lungmar"},
    {"pincode":401899,"latitude":27.756647,"longitude":118.035309,"location":"Wuqishan"},
    {"pincode":401900,"latitude":-6.8921158,"longitude":111.6526577,"location":"Wotsogo"},
    {"pincode":401901,"latitude":50.182978,"longitude":12.5505533,"location":"Habartov"},
    {"pincode":401902,"latitude":51.653437,"longitude":39.183897,"location":"Petrovskiy"},
    {"pincode":401903,"latitude":18.6367692,"longitude":-69.2696692,"location":"Guayabo Dulce"},
    {"pincode":401904,"latitude":22.560473,"longitude":113.111612,"location":"Jianghai"},
    {"pincode":401905,"latitude":31.3546763,"longitude":34.3088255,"location":"Gaza"},
    {"pincode":401906,"latitude":41.805699,"longitude":123.431472,"location":"Sanyang"},
    {"pincode":401907,"latitude":56.1263981,"longitude":88.5278663,"location":"Tyazhinskiy"},
    {"pincode":401908,"latitude":13.9013242,"longitude":-87.1996084,"location":"San Buenaventura"},
    {"pincode":401909,"latitude":-6.2899253,"longitude":145.859323,"location":"Kainantu"},
    {"pincode":401910,"latitude":50.1327056,"longitude":18.1543922,"location":"Rudnik"},
    {"pincode":401911,"latitude":-45.9328639,"longitude":-67.5573429,"location":"Rada Tilly"},
    {"pincode":401912,"latitude":51.5574609,"longitude":20.8640191,"location":"Radzanów"},
    {"pincode":401913,"latitude":9.616419,"longitude":11.43472,"location":"Dadiya"},
    {"pincode":401914,"latitude":42.6484886,"longitude":27.683386,"location":"Nesebar"},
    {"pincode":401915,"latitude":-20.05913,"longitude":48.13327,"location":"Marolambo"},
    {"pincode":401916,"latitude":43.817071,"longitude":125.323544,"location":"Zhangcun"},
    {"pincode":401917,"latitude":50.7504165,"longitude":19.2676736,"location":"Olsztyn"},
    {"pincode":401918,"latitude":54.6312426,"longitude":18.3642669,"location":"Rekowo Dolne"},
    {"pincode":401919,"latitude":-6.9286248,"longitude":107.7340132,"location":"Cileunyi"},
    {"pincode":401920,"latitude":-20.4363727,"longitude":-51.3050851,"location":"Ilha Solteira"},
    {"pincode":401921,"latitude":23.701262,"longitude":117.430061,"location":"Dongshan"},
    {"pincode":401922,"latitude":39.8435737,"longitude":22.7619237,"location":"Karítsa"},
    {"pincode":401923,"latitude":1.5316053,"longitude":-77.4128193,"location":"El Peñol"},
    {"pincode":401924,"latitude":39.8926924,"longitude":-8.3687908,"location":"Chão de Couce"},
    {"pincode":401925,"latitude":41.7105857,"longitude":46.2680965,"location":"Qabaqçöl"},
    {"pincode":401926,"latitude":42.5246357,"longitude":87.5395855,"location":"Xiaojiang"},
    {"pincode":401927,"latitude":43.3715256,"longitude":24.5714432,"location":"Pleven"},
    {"pincode":401928,"latitude":27.4140682,"longitude":64.987739,"location":"Panjgūr"},
    {"pincode":401929,"latitude":62.0096447,"longitude":-6.7716551,"location":"Miðvágur"},
    {"pincode":401930,"latitude":54.7879955,"longitude":17.9833033,"location":"Wierzchucino"},
    {"pincode":401931,"latitude":48.966667,"longitude":96.783333,"location":"Hödrögö"},
    {"pincode":401932,"latitude":32.036154,"longitude":96.842945,"location":"Nyagla"},
    {"pincode":401933,"latitude":42.76631,"longitude":129.427066,"location":"Longjing"},
    {"pincode":401934,"latitude":25.941937,"longitude":117.365052,"location":"Yong’an"},
    {"pincode":401935,"latitude":53.6849853,"longitude":27.1325559,"location":"Dzyarzhynsk"},
    {"pincode":401936,"latitude":50.3406189,"longitude":21.050137,"location":"Słupsk"},
    {"pincode":401937,"latitude":14.554384,"longitude":121.0460866,"location":"Cafe"},
    {"pincode":401938,"latitude":-11.4389649,"longitude":34.0084395,"location":"Mzuzu"},
    {"pincode":401939,"latitude":56.5501038,"longitude":26.9229659,"location":"Viļāni"},
    {"pincode":401940,"latitude":-8.594056,"longitude":122.565498,"location":"Nangahale"},
    {"pincode":401941,"latitude":3.22059,"longitude":-76.415465,"location":"Puerto Tejada"},
    {"pincode":401942,"latitude":1.7642785,"longitude":33.1506163,"location":"Kaberamaido"},
    {"pincode":401943,"latitude":28.430921,"longitude":115.969683,"location":"Xiangtang"},
    {"pincode":401944,"latitude":49.2826578,"longitude":-123.118728,"location":"North Vancouver"},
    {"pincode":401945,"latitude":-7.6838962,"longitude":109.9764822,"location":"Seren Barat"},
    {"pincode":401946,"latitude":-7.384252,"longitude":107.9591094,"location":"Kawungsari"},
    {"pincode":401947,"latitude":49.387383,"longitude":1.0839961,"location":"Saint-Étienne-du-Rouvray"},
    {"pincode":401948,"latitude":22.529403,"longitude":103.93935,"location":"Hekou"},
    {"pincode":401949,"latitude":31.284181,"longitude":119.160586,"location":"Dingbu"},
    {"pincode":401950,"latitude":49.9511113,"longitude":35.9407539,"location":"Lyubotyn"},
    {"pincode":401951,"latitude":31.26886,"longitude":-9.183608,"location":"Bouabout"},
    {"pincode":401952,"latitude":6.444345,"longitude":124.925696,"location":"Tampakan"},
    {"pincode":401953,"latitude":38.7146303,"longitude":-9.414533,"location":"Pai do Vento"},
    {"pincode":401954,"latitude":37.1017088,"longitude":70.5552362,"location":"Fayzabad"},
    {"pincode":401955,"latitude":37.9346907,"longitude":21.1449975,"location":"Kyllíni"},
    {"pincode":401956,"latitude":4.3320676,"longitude":18.5166348,"location":"Bimbo"},
    {"pincode":401957,"latitude":38.553725,"longitude":76.075532,"location":"Ha’erlong"},
    {"pincode":401958,"latitude":36.2062933,"longitude":44.0088697,"location":"Erbil"},
    {"pincode":401959,"latitude":55.6297634,"longitude":13.5130029,"location":"Sjöbo"},
    {"pincode":401960,"latitude":"-8.1947","longitude":"114.9181","location":"Umbanyar"},
    {"pincode":401961,"latitude":-6.9401945,"longitude":106.9247932,"location":"Cikondang"},
    {"pincode":401962,"latitude":41.5289432,"longitude":-8.264878,"location":"Gondomar"},
    {"pincode":401963,"latitude":7.8570335,"longitude":36.5823944,"location":"Āgaro"},
    {"pincode":401964,"latitude":45.3483509,"longitude":-80.0175734,"location":"Parry Sound"},
    {"pincode":401965,"latitude":56.1721987,"longitude":93.6466243,"location":"Zheleznogorsk"},
    {"pincode":401966,"latitude":43.8384389,"longitude":126.6028353,"location":"Longhuashan"},
    {"pincode":401967,"latitude":"15.64453","longitude":"44.47337","location":"Al Madīd"},
    {"pincode":401968,"latitude":49.467631,"longitude":124.782276,"location":"Bayan Ewenke Minzu"},
    {"pincode":401969,"latitude":14.549965,"longitude":-86.8270545,"location":"Guaimaca"},
    {"pincode":401970,"latitude":10.5922194,"longitude":123.4845632,"location":"Calatrava"},
    {"pincode":401971,"latitude":48.4474111,"longitude":25.0435007,"location":"Spas"},
    {"pincode":401972,"latitude":22.183206,"longitude":112.305145,"location":"Yangping"},
    {"pincode":401973,"latitude":18.2148129,"longitude":-63.0574406,"location":"The Valley"},
    {"pincode":401974,"latitude":32.5518151,"longitude":51.5307789,"location":"Kelīshād va Sūdarjān"},
    {"pincode":401975,"latitude":-14.31779,"longitude":-72.149719,"location":"Quiñota"},
    {"pincode":401976,"latitude":-26.6246782,"longitude":-52.8955875,"location":"Irati"},
    {"pincode":401977,"latitude":-7.1477523,"longitude":109.9854145,"location":"Sukorejo"},
    {"pincode":401978,"latitude":18.1224925,"longitude":-94.4632404,"location":"Francisco Villa"},
    {"pincode":401979,"latitude":-8.3010912,"longitude":112.1489829,"location":"Tambakrejo"},
    {"pincode":401980,"latitude":32.667571,"longitude":119.004816,"location":"Tiancheng"},
    {"pincode":401981,"latitude":34.6756374,"longitude":-5.2697497,"location":"Teroual"},
    {"pincode":401982,"latitude":29.956538,"longitude":106.375509,"location":"Xiaomiaozi"},
    {"pincode":401983,"latitude":41.3718791,"longitude":-8.5085734,"location":"Cabeçudos"},
    {"pincode":401984,"latitude":54.1694522,"longitude":74.69325,"location":"Novovarshavka"},
    {"pincode":401985,"latitude":40.935201,"longitude":-8.6143168,"location":"Maceda"},
    {"pincode":401986,"latitude":"-8.3052","longitude":"123.237","location":"Kampungsusah"},
    {"pincode":401987,"latitude":45.5178224,"longitude":20.6883184,"location":"Novi Itebej"},
    {"pincode":401988,"latitude":-4.5549848,"longitude":104.6354631,"location":"Negeriagung"},
    {"pincode":401989,"latitude":59.2436305,"longitude":14.4319324,"location":"Degerfors"},
    {"pincode":401990,"latitude":"-10.6631","longitude":"123.1415","location":"Momanalu"},
    {"pincode":401991,"latitude":"-6.5683","longitude":"106.4116","location":"Cikomara"},
    {"pincode":401992,"latitude":-9.6497849,"longitude":124.5694514,"location":"Billa"},
    {"pincode":401993,"latitude":32.315889,"longitude":107.873926,"location":"Miaoya"},
    {"pincode":401994,"latitude":11.0358967,"longitude":122.5157547,"location":"Binabaan"},
    {"pincode":401995,"latitude":22.9081486,"longitude":-83.1702597,"location":"Bahía Honda"},
    {"pincode":401996,"latitude":-8.4114856,"longitude":116.1713917,"location":"Tanjung"},
    {"pincode":401997,"latitude":48.120484,"longitude":-1.695391,"location":"Rennes"},
    {"pincode":401998,"latitude":-8.0884404,"longitude":-79.0872788,"location":"Huanchaco"},
    {"pincode":401999,"latitude":44.9799999,"longitude":-93.26,"location":"Minneapolis"},
    {"pincode":402000,"latitude":42.0592298,"longitude":21.4472756,"location":"Радишани"}]